{
"type": "FeatureCollection",
"name": "district-boundary",
"crs": { "type": "name", "properties": { "name": "urn:ogc:def:crs:OGC:1.3:CRS84" } },
"features": [
{ "type": "Feature", "properties": { "DISTRICT": "2", "NAME": "District #2" }, "geometry": { "type": "Polygon", "coordinates": [ [ [ -121.868603001014591, 39.815210998848066 ], [ -121.867540000801768, 39.813941999326701 ], [ -121.86651100107207, 39.812711999366229 ], [ -121.866088000732191, 39.812205999271349 ], [ -121.865711000820781, 39.811754998918055 ], [ -121.865644001592216, 39.811674999358097 ], [ -121.864563001498425, 39.811697999393083 ], [ -121.863189000636609, 39.811725998689582 ], [ -121.863066001444167, 39.811728999107714 ], [ -121.862951000850273, 39.811731998793093 ], [ -121.862976000605798, 39.808367999516179 ], [ -121.861817001440414, 39.806999999512087 ], [ -121.861728001052114, 39.806890999447887 ], [ -121.861687001227935, 39.806840999123978 ], [ -121.861597000742222, 39.806735999396089 ], [ -121.861598000977693, 39.806122999322149 ], [ -121.861481000704615, 39.80612199900645 ], [ -121.861384000609064, 39.806120998687724 ], [ -121.860149001155719, 39.80612599885135 ], [ -121.860016000623986, 39.806125999433846 ], [ -121.860001001202306, 39.806886999456495 ], [ -121.860001000778254, 39.806940999210433 ], [ -121.860001001026788, 39.806958998828414 ], [ -121.859993001516216, 39.807275998731306 ], [ -121.859993000867505, 39.807508999395111 ], [ -121.859993001543813, 39.807586998921693 ], [ -121.859738000777213, 39.807588999533252 ], [ -121.858542000678156, 39.807208998756607 ], [ -121.858517001061884, 39.807201999462968 ], [ -121.858466001356433, 39.807199999102053 ], [ -121.857823001055763, 39.807180999318568 ], [ -121.85726800110983, 39.80736899872069 ], [ -121.857240001271819, 39.807407999242869 ], [ -121.857039000844722, 39.807691999043641 ], [ -121.856969001025305, 39.807701998741599 ], [ -121.856956000851753, 39.808718999185594 ], [ -121.856941001638035, 39.809987999272224 ], [ -121.856941001272773, 39.810073999246697 ], [ -121.85694100094787, 39.810175999359423 ], [ -121.856758001652338, 39.810203999079832 ], [ -121.855299000932931, 39.810425998688991 ], [ -121.85546300139552, 39.81063499885402 ], [ -121.85564800158653, 39.81086899876329 ], [ -121.8557140014845, 39.810951999302212 ], [ -121.855400001711658, 39.810999999395634 ], [ -121.854896001757453, 39.811076999201269 ], [ -121.854916001506268, 39.811157999014071 ], [ -121.854817001741765, 39.811172999078913 ], [ -121.85461900091785, 39.811202998957391 ], [ -121.854599001499437, 39.811121999095626 ], [ -121.854564001456168, 39.811126998670765 ], [ -121.853610001439591, 39.811271999081278 ], [ -121.853609001426008, 39.811298999474019 ], [ -121.853609001021184, 39.811320998870826 ], [ -121.853602001390556, 39.811932999533305 ], [ -121.853368000816602, 39.81193299950052 ], [ -121.852707001276414, 39.811932999236589 ], [ -121.851274001160249, 39.81194399944912 ], [ -121.850128001368077, 39.81195199896846 ], [ -121.8491140009356, 39.811962998900903 ], [ -121.848996001529869, 39.811959998979503 ], [ -121.848764001659433, 39.811954999138074 ], [ -121.84893500140511, 39.810873999300611 ], [ -121.848874000780611, 39.80931899891462 ], [ -121.8487400012515, 39.804158999377158 ], [ -121.84878600173036, 39.802180999338063 ], [ -121.848793000943161, 39.800798999216063 ], [ -121.848793001373281, 39.800748999146947 ], [ -121.848785001384954, 39.800707998999222 ], [ -121.848785001542723, 39.800662999385466 ], [ -121.848777000856487, 39.800617999409226 ], [ -121.848770000870473, 39.800572998914816 ], [ -121.84876300117115, 39.800522998862391 ], [ -121.848755000971636, 39.800473999056884 ], [ -121.848747001493933, 39.800428999076814 ], [ -121.848740001544101, 39.800383999477944 ], [ -121.84872400155669, 39.800333998672137 ], [ -121.848716000947164, 39.800288998685993 ], [ -121.848701001397615, 39.80024399871747 ], [ -121.848686001690069, 39.800197999014586 ], [ -121.848671001011581, 39.800152999039177 ], [ -121.848656001520027, 39.800107999062512 ], [ -121.848641001166499, 39.800057999523986 ], [ -121.848625000747035, 39.800017998714594 ], [ -121.84860200153318, 39.799971999526605 ], [ -121.848587000957011, 39.799926999536467 ], [ -121.848564001507995, 39.799885998996771 ], [ -121.848541001680559, 39.799835999065984 ], [ -121.848511001220331, 39.799795999152998 ], [ -121.848488000689187, 39.799754999495548 ], [ -121.848465001354526, 39.79971399893374 ], [ -121.848442001351586, 39.799668999439383 ], [ -121.848412000847901, 39.799627998866029 ], [ -121.848381000871157, 39.799586998799484 ], [ -121.848351001603959, 39.799545999111473 ], [ -121.84832000169915, 39.799504999027548 ], [ -121.848297001546911, 39.799464999060049 ], [ -121.848259000819425, 39.799418999391399 ], [ -121.848229001697447, 39.799377998768961 ], [ -121.8481980016183, 39.799341999109984 ], [ -121.848168000719681, 39.799296998640607 ], [ -121.848129001017028, 39.799259998828248 ], [ -121.848099001363465, 39.799214999242025 ], [ -121.848038001189352, 39.799150998986583 ], [ -121.848000000803879, 39.799118999077386 ], [ -121.844124001303157, 39.799161999336647 ], [ -121.844165001499576, 39.797628999353286 ], [ -121.844165001437091, 39.797565999091717 ], [ -121.844164000728526, 39.797502999306317 ], [ -121.84414700092556, 39.796663999315662 ], [ -121.844145001759998, 39.796567998894751 ], [ -121.84412600073864, 39.79563099866926 ], [ -121.843989000607081, 39.79532699926142 ], [ -121.843928001644997, 39.794875999029557 ], [ -121.843915000678692, 39.794036998936193 ], [ -121.843914001712363, 39.794008998758223 ], [ -121.84391400062627, 39.793998998715537 ], [ -121.843913001198572, 39.793955998924702 ], [ -121.843912001257038, 39.793875999068348 ], [ -121.843905001252551, 39.793472998796766 ], [ -121.843898001044849, 39.792991999370749 ], [ -121.843894001501809, 39.792758999221725 ], [ -121.843885001007806, 39.792208999110329 ], [ -121.843883001353149, 39.792103999103958 ], [ -121.843882001084737, 39.792041998916993 ], [ -121.843882001472281, 39.792023999189688 ], [ -121.843870001694313, 39.791288998946534 ], [ -121.843842001400617, 39.791289999395957 ], [ -121.843415001647344, 39.791297998796786 ], [ -121.843228000620641, 39.791300998773863 ], [ -121.843014000798817, 39.791302998769773 ], [ -121.842943000977812, 39.791302998702854 ], [ -121.841826000798847, 39.791322999411754 ], [ -121.841852001276337, 39.791101999204159 ], [ -121.841575000766539, 39.790495999124992 ], [ -121.841550000906352, 39.790445999449432 ], [ -121.841539001222458, 39.790420999375741 ], [ -121.841538001696307, 39.790418999461103 ], [ -121.84292800067945, 39.790387999456136 ], [ -121.843801001243975, 39.790366999443563 ], [ -121.843855001281867, 39.790365999244095 ], [ -121.843853000808267, 39.790284999114547 ], [ -121.84379700135014, 39.786774999292405 ], [ -121.843785001350369, 39.786053999264603 ], [ -121.843773001063468, 39.785327999446714 ], [ -121.843771001235709, 39.785206998856935 ], [ -121.84218600106685, 39.783293998993287 ], [ -121.842172866190111, 39.783236232557698 ], [ -121.843869059920848, 39.78319083620422 ], [ -121.843773000685658, 39.776979999465809 ], [ -121.843772001470825, 39.77691399905391 ], [ -121.843767000817309, 39.775948999445568 ], [ -121.843720358501415, 39.773886474862429 ], [ -121.843705158323147, 39.772154371905692 ], [ -121.843684439047124, 39.771722060278194 ], [ -121.84365411486813, 39.77104860778374 ], [ -121.843648976265385, 39.770922235272302 ], [ -121.843634487149345, 39.770454195843932 ], [ -121.843624193760107, 39.769842389820028 ], [ -121.843609913237856, 39.769097803413374 ], [ -121.843605890992194, 39.768888582365705 ], [ -121.843601509657674, 39.768187772396004 ], [ -121.843601823062613, 39.767642164787091 ], [ -121.843596446929666, 39.766746394901297 ], [ -121.843583983040119, 39.765658131996695 ], [ -121.843566762088642, 39.764965130040224 ], [ -121.843550316776472, 39.7644990215802 ], [ -121.84352828080101, 39.763874717048736 ], [ -121.843523669888953, 39.76343369881868 ], [ -121.843504996217249, 39.762830539070514 ], [ -121.843495121728026, 39.762358883610275 ], [ -121.843464309797767, 39.760888526471284 ], [ -121.842574315989566, 39.7608984713819 ], [ -121.842148115189175, 39.760903253504445 ], [ -121.841721622631198, 39.760908011175424 ], [ -121.838706156795979, 39.760941678141243 ], [ -121.83825914884099, 39.760946485235515 ], [ -121.837676086744182, 39.760952766698708 ], [ -121.837278705644735, 39.760957030518945 ], [ -121.836352653460054, 39.760971782734991 ], [ -121.835730594022209, 39.760981666099461 ], [ -121.834001728987403, 39.760995163637034 ], [ -121.833966830889622, 39.76007967135272 ], [ -121.833966275107358, 39.759846615989467 ], [ -121.833965369644332, 39.759441337869234 ], [ -121.83396283634346, 39.75910799958357 ], [ -121.83395268613117, 39.758743166569928 ], [ -121.833962121062825, 39.758425699631772 ], [ -121.83394350464576, 39.758079610215191 ], [ -121.833946150551597, 39.757676226446016 ], [ -121.833922123459971, 39.756895862968065 ], [ -121.833908764473577, 39.756274377961027 ], [ -121.833893808002514, 39.756019600195181 ], [ -121.833879883381812, 39.755403084103676 ], [ -121.833872812674713, 39.754894773810484 ], [ -121.8338693141894, 39.754108478696246 ], [ -121.833849931045464, 39.753287213827043 ], [ -121.833690374765794, 39.752700923499333 ], [ -121.833465502915146, 39.752770221560844 ], [ -121.832510397575675, 39.753042148806514 ], [ -121.83233200289132, 39.753134198820909 ], [ -121.831814616363559, 39.753338008785576 ], [ -121.831122433758821, 39.753420616879467 ], [ -121.830619121747901, 39.753445405509567 ], [ -121.830089553143367, 39.753388879850547 ], [ -121.829736651498109, 39.75334266436397 ], [ -121.829356486251271, 39.753274844334008 ], [ -121.829254931694649, 39.753262860424414 ], [ -121.829119329307233, 39.753246857739171 ], [ -121.828826414189408, 39.753248166948545 ], [ -121.828483048735876, 39.753291623812508 ], [ -121.827970637697007, 39.753201135623833 ], [ -121.82751987347676, 39.753060080629545 ], [ -121.827047011062845, 39.752918800496438 ], [ -121.826468952724454, 39.752789251472819 ], [ -121.825625030292215, 39.752695400723226 ], [ -121.825111033963651, 39.75269872831187 ], [ -121.824645749683043, 39.752762267040694 ], [ -121.824579718207403, 39.752761598548908 ], [ -121.825004870887497, 39.752054741322219 ], [ -121.825010168689971, 39.750468022414125 ], [ -121.825827581812121, 39.749762667208003 ], [ -121.82444434520562, 39.748719653521938 ], [ -121.824181874908888, 39.748859032518872 ], [ -121.823866821031459, 39.749101265242267 ], [ -121.823614609524299, 39.74936576593759 ], [ -121.822969781275262, 39.748890724931336 ], [ -121.822565708765723, 39.74856031207414 ], [ -121.82249028610876, 39.748396903790102 ], [ -121.822474862948823, 39.748268898792659 ], [ -121.822474819531578, 39.748268534853544 ], [ -121.821788813318491, 39.747770530734641 ], [ -121.821080266820573, 39.74723855162167 ], [ -121.819752798609542, 39.746239307818868 ], [ -121.821110270996385, 39.745183483186878 ], [ -121.821565393967376, 39.744835454622624 ], [ -121.82207448572936, 39.744433487640777 ], [ -121.819903004988518, 39.742813880350816 ], [ -121.82038581705531, 39.742559318670082 ], [ -121.822137697213194, 39.741206908139908 ], [ -121.823685662899805, 39.74002517423871 ], [ -121.823875736507134, 39.739888780573871 ], [ -121.823901618705122, 39.739870209443147 ], [ -121.823979156558011, 39.739814559801815 ], [ -121.828841154247286, 39.743348966918418 ], [ -121.831566099417543, 39.745339037441667 ], [ -121.835403095964935, 39.748217849571873 ], [ -121.838785965009478, 39.750672952817908 ], [ -121.839838892710347, 39.751288424923054 ], [ -121.841969001281086, 39.752442999253773 ], [ -121.844432000677486, 39.753777999006061 ], [ -121.844511000626298, 39.753822999311524 ], [ -121.845099398514563, 39.754162272870637 ], [ -121.845529001514265, 39.754404999033447 ], [ -121.84791400167849, 39.755753999035996 ], [ -121.851040001372922, 39.757538998885586 ], [ -121.851148001358439, 39.757599999390791 ], [ -121.852455000995278, 39.758303998638802 ], [ -121.852604001545672, 39.758386999467923 ], [ -121.854382001310597, 39.759384998705208 ], [ -121.855602001245416, 39.76017499878315 ], [ -121.858517000769481, 39.762477998727597 ], [ -121.860549001503657, 39.764104999100049 ], [ -121.860559598318773, 39.764114424564234 ], [ -121.860641874347522, 39.764063509741511 ], [ -121.860694365718473, 39.764029686794665 ], [ -121.861084618554088, 39.76377821923333 ], [ -121.861572350559456, 39.763478451196256 ], [ -121.862819784059511, 39.762736039139511 ], [ -121.862819809764133, 39.762736023858039 ], [ -121.863170061066, 39.762549539280705 ], [ -121.863610275687705, 39.762269367323796 ], [ -121.864338403681785, 39.761837918336994 ], [ -121.864422692386256, 39.761768726717037 ], [ -121.865685495230622, 39.761048342837178 ], [ -121.866633217280679, 39.761985729926003 ], [ -121.867116962244836, 39.762464170592246 ], [ -121.868577750348365, 39.763908935202224 ], [ -121.870830580570484, 39.766228546780503 ], [ -121.871743299759672, 39.767137812683345 ], [ -121.871743318395474, 39.767137833419071 ], [ -121.872887404664439, 39.768210744973935 ], [ -121.873492105906919, 39.768825033123868 ], [ -121.873793093333774, 39.769130801895194 ], [ -121.873793111970727, 39.769130822630558 ], [ -121.873938250515849, 39.769278260938322 ], [ -121.874455554090545, 39.769803753291377 ], [ -121.874941608076554, 39.770273391120092 ], [ -121.874941626714147, 39.770273411855264 ], [ -121.875444922103512, 39.770791397511282 ], [ -121.8756309716277, 39.770973395922766 ], [ -121.875806180919426, 39.771154347727276 ], [ -121.876945170946655, 39.772324089483064 ], [ -121.876945183735188, 39.772324118317854 ], [ -121.878781116292643, 39.774106994904884 ], [ -121.878781137268348, 39.774107014741169 ], [ -121.880512187684246, 39.775839022267029 ], [ -121.881181949548122, 39.776520642715305 ], [ -121.881260343283543, 39.776600425374973 ], [ -121.881998001926235, 39.777351141879429 ], [ -121.882265728806928, 39.777623602895311 ], [ -121.882884070018079, 39.778233497551547 ], [ -121.883649237292175, 39.778988192587668 ], [ -121.884679371510089, 39.780004200943196 ], [ -121.886243152042397, 39.781294134056829 ], [ -121.88641788581991, 39.781478599452079 ], [ -121.887792795288888, 39.782747968498114 ], [ -121.888301401979191, 39.783207457502321 ], [ -121.889829411677695, 39.784587852889274 ], [ -121.890363363433522, 39.785072919877244 ], [ -121.89098616156646, 39.785609072977728 ], [ -121.895173771867462, 39.78946483648496 ], [ -121.895583383420188, 39.789851822036809 ], [ -121.895410305093179, 39.789855585474875 ], [ -121.894165045588963, 39.789877749094536 ], [ -121.894165056888554, 39.789877997687405 ], [ -121.894165000846598, 39.789877999438353 ], [ -121.894203000806087, 39.79071699911546 ], [ -121.89424100104462, 39.791550998935485 ], [ -121.895909001504847, 39.791545998919823 ], [ -121.895846001308982, 39.791578999307838 ], [ -121.895360000660745, 39.7918719986531 ], [ -121.895160001156071, 39.792081999125777 ], [ -121.894540000605289, 39.791930999284311 ], [ -121.894411001638488, 39.791898999424909 ], [ -121.894283001018195, 39.791866999418978 ], [ -121.894242001502121, 39.791855998870012 ], [ -121.894196000688865, 39.791843999484989 ], [ -121.894111001061717, 39.791818999114831 ], [ -121.894026001495206, 39.791793998683154 ], [ -121.893882001760133, 39.791747999278847 ], [ -121.893819001655402, 39.791726999434857 ], [ -121.893757001331352, 39.791704998923315 ], [ -121.893696000788282, 39.791681998646382 ], [ -121.893635000633154, 39.791657999504586 ], [ -121.893575001433149, 39.791632998799187 ], [ -121.893515001107019, 39.79160799896259 ], [ -121.893455000733027, 39.791569998949363 ], [ -121.893398001173907, 39.79157099935609 ], [ -121.893339001242751, 39.791526999081867 ], [ -121.893282001496544, 39.791498999037138 ], [ -121.893225001338635, 39.791468999495834 ], [ -121.893169000621057, 39.791438999031591 ], [ -121.893087001688812, 39.791392999016509 ], [ -121.892574000997243, 39.791065999310163 ], [ -121.892526001355904, 39.791033999157122 ], [ -121.892477001138147, 39.790998998867913 ], [ -121.892429001085674, 39.790961999101683 ], [ -121.89238300101708, 39.790924999341158 ], [ -121.892339001666059, 39.790885999219775 ], [ -121.892202000993734, 39.790759999267948 ], [ -121.892066001360035, 39.790633999166701 ], [ -121.891754001085303, 39.79027199902486 ], [ -121.891650001157856, 39.790159998884292 ], [ -121.891381001027341, 39.789871998686863 ], [ -121.890724000866911, 39.78902099940656 ], [ -121.890652000838244, 39.788927998657563 ], [ -121.890648001487122, 39.788923998706466 ], [ -121.890553001748799, 39.788743998677184 ], [ -121.890443001643447, 39.788581998757437 ], [ -121.890328001014041, 39.788421998943598 ], [ -121.890210001309313, 39.788262998649309 ], [ -121.890088001631796, 39.788105999369279 ], [ -121.88999900079483, 39.78799499879193 ], [ -121.889963001744249, 39.787949998687239 ], [ -121.889835000850184, 39.787796998766176 ], [ -121.889702001092672, 39.787644999155596 ], [ -121.889619000640408, 39.787551999130976 ], [ -121.88956700166932, 39.78749399904769 ], [ -121.88942800076876, 39.787345998730409 ], [ -121.8892860016405, 39.787199999397089 ], [ -121.889196000644915, 39.787110999527044 ], [ -121.889140000709759, 39.787054999456259 ], [ -121.888991001158217, 39.786912999310466 ], [ -121.888839001485366, 39.786771999475377 ], [ -121.888684000863094, 39.786633999410881 ], [ -121.888504001695964, 39.786478998875275 ], [ -121.888500001439596, 39.786474998846323 ], [ -121.888015001529354, 39.786071999034625 ], [ -121.887097000901093, 39.785307998680992 ], [ -121.886799001623473, 39.785052998691548 ], [ -121.886427001376489, 39.784754999156171 ], [ -121.886231000834655, 39.784592999450979 ], [ -121.886103001353405, 39.784485999374759 ], [ -121.885757001058707, 39.784218999326924 ], [ -121.885588001744182, 39.784046999408552 ], [ -121.885522000735065, 39.783979998829324 ], [ -121.885218000901801, 39.784114998941227 ], [ -121.885000000976817, 39.784211999480021 ], [ -121.884974000642572, 39.784241999528831 ], [ -121.884916000631094, 39.784274999046033 ], [ -121.884878001191083, 39.78428899876203 ], [ -121.88482200100664, 39.784301999141995 ], [ -121.88461900086368, 39.784325999510529 ], [ -121.884474001380056, 39.784332998753648 ], [ -121.884405001334471, 39.784337999096607 ], [ -121.884263001239617, 39.784348999070772 ], [ -121.884149000941036, 39.784352999435335 ], [ -121.884000001273378, 39.78436599888726 ], [ -121.883824001031527, 39.784392999364819 ], [ -121.883653001332931, 39.784446999218368 ], [ -121.88348400138149, 39.784516999294212 ], [ -121.883380000696192, 39.784560999183959 ], [ -121.883286001153593, 39.784606999358424 ], [ -121.88316100153537, 39.784649999223241 ], [ -121.883015001580162, 39.784687999230393 ], [ -121.882868000702743, 39.784714999153799 ], [ -121.882692001013154, 39.78473599951689 ], [ -121.882570000865684, 39.784753999311718 ], [ -121.882449001688869, 39.784763999382086 ], [ -121.882346001540043, 39.784766999334749 ], [ -121.882318001282783, 39.784764998910177 ], [ -121.882207001384515, 39.784757998783974 ], [ -121.882084001598386, 39.784764999069516 ], [ -121.881975000990806, 39.78476799899552 ], [ -121.881859001408017, 39.784764998783871 ], [ -121.881767001002828, 39.78476699871721 ], [ -121.881685000930787, 39.784774998939184 ], [ -121.881609000636317, 39.784781999092914 ], [ -121.881513000773623, 39.784794999119036 ], [ -121.881425000826425, 39.784832998740448 ], [ -121.881330001443402, 39.784867999239061 ], [ -121.881245001672241, 39.784938999367583 ], [ -121.88119500083333, 39.785004999126748 ], [ -121.881170000731302, 39.785064998646092 ], [ -121.881182001245122, 39.785191998934714 ], [ -121.881182001583397, 39.785197999156743 ], [ -121.881183000921141, 39.785270998957735 ], [ -121.881191001671269, 39.785320999265934 ], [ -121.88122900151059, 39.7853729986753 ], [ -121.881288001211942, 39.785441999448231 ], [ -121.88130600135996, 39.78548899890378 ], [ -121.88132300135247, 39.785570998936365 ], [ -121.88131900103167, 39.78558799943432 ], [ -121.881317001193366, 39.785596998651172 ], [ -121.881315000826518, 39.785606999405267 ], [ -121.881299001036098, 39.785680998913804 ], [ -121.881236001419197, 39.785833998673695 ], [ -121.881181000699769, 39.785924999384022 ], [ -121.881173001679031, 39.785968999532734 ], [ -121.881121001243343, 39.786094999414466 ], [ -121.881077001672395, 39.786190999043022 ], [ -121.88102600141643, 39.786252998745333 ], [ -121.880964000933218, 39.786302999479616 ], [ -121.880876001651345, 39.786350998736452 ], [ -121.880741001487209, 39.786396999514395 ], [ -121.880640001051205, 39.786388999298865 ], [ -121.880573001571378, 39.78639699953208 ], [ -121.880510000681411, 39.78639599895164 ], [ -121.880420001475812, 39.786373998987955 ], [ -121.880413001488407, 39.786371998713797 ], [ -121.880293000642695, 39.78633699863903 ], [ -121.880214000619574, 39.786317998996203 ], [ -121.880124001744505, 39.786256999182065 ], [ -121.880047000893157, 39.786189998805064 ], [ -121.879959001187871, 39.786104999118095 ], [ -121.879905000666497, 39.786038999300629 ], [ -121.879892000811509, 39.786022999270081 ], [ -121.879816001271749, 39.785933999249892 ], [ -121.879711001592497, 39.785847999398662 ], [ -121.879658001374892, 39.785814998992599 ], [ -121.879588000851754, 39.785786998781894 ], [ -121.879501001616518, 39.785758999154609 ], [ -121.879310000825726, 39.785732998701363 ], [ -121.879224000935636, 39.785740999414998 ], [ -121.879103000612901, 39.785767998771917 ], [ -121.879020001124942, 39.785783999407499 ], [ -121.878822000929361, 39.785848999421617 ], [ -121.878615001750347, 39.78584799911399 ], [ -121.87841200104485, 39.785815999029275 ], [ -121.878365000951575, 39.78579099942398 ], [ -121.87831000162322, 39.785757999047668 ], [ -121.878240001462459, 39.785713998647346 ], [ -121.878149001616677, 39.785647999391166 ], [ -121.878119000934234, 39.785613998924852 ], [ -121.878063001217214, 39.785566999281556 ], [ -121.877996000949395, 39.785511999330929 ], [ -121.877921001239088, 39.785412999034229 ], [ -121.877823001743494, 39.785282999205442 ], [ -121.877724000884413, 39.785221999000342 ], [ -121.877659001596626, 39.785171998710453 ], [ -121.877555001714725, 39.785131999349758 ], [ -121.877449001503024, 39.7850609987685 ], [ -121.877409000844537, 39.785031999002172 ], [ -121.877373001506513, 39.785005998995409 ], [ -121.877335000611637, 39.784936999200973 ], [ -121.877310001084879, 39.784809999372541 ], [ -121.877310001630562, 39.784778999422144 ], [ -121.87719900109245, 39.784609999357606 ], [ -121.877165001249082, 39.784546999388674 ], [ -121.8771490009307, 39.784518999071821 ], [ -121.877068001298539, 39.78442699910007 ], [ -121.876956001055433, 39.784359998846583 ], [ -121.876956001689152, 39.784346998662151 ], [ -121.876712001696077, 39.784191999530073 ], [ -121.876673001093451, 39.784166999498723 ], [ -121.876352001579718, 39.784044999459972 ], [ -121.876297000905197, 39.784023999468019 ], [ -121.875759001193799, 39.783821998781086 ], [ -121.875610000916026, 39.783765999441194 ], [ -121.875284001455356, 39.783609999216232 ], [ -121.875109000730788, 39.783521999020515 ], [ -121.874905000926745, 39.783347999347932 ], [ -121.874211001118169, 39.783069998802119 ], [ -121.873468001345685, 39.782953998991381 ], [ -121.872939000660836, 39.782974998653259 ], [ -121.872458001461553, 39.782994998651048 ], [ -121.872336000903303, 39.783442999323334 ], [ -121.872227001200216, 39.783840999107767 ], [ -121.872222001170812, 39.783858998863963 ], [ -121.872181001756331, 39.783845999225775 ], [ -121.872114001761972, 39.78382499866661 ], [ -121.871891000929452, 39.78375399925163 ], [ -121.8719970012489, 39.783431999074267 ], [ -121.872137000890817, 39.783005999008289 ], [ -121.872120001023546, 39.782917999130547 ], [ -121.872095001447065, 39.782786999134295 ], [ -121.872069000715328, 39.782809999091967 ], [ -121.872019000877728, 39.782852999249002 ], [ -121.871721001027836, 39.782855999439811 ], [ -121.871550001731435, 39.782842999331301 ], [ -121.8713760010274, 39.782761999116168 ], [ -121.871001001453408, 39.78254699934579 ], [ -121.870894001512539, 39.782474999156065 ], [ -121.870533001411758, 39.782163998731896 ], [ -121.870269001400203, 39.781954998970768 ], [ -121.869902001248803, 39.781666999226957 ], [ -121.869828000904633, 39.78160899929852 ], [ -121.869753001219848, 39.781552999495084 ], [ -121.869676001299752, 39.781497998969051 ], [ -121.869598001559197, 39.781443998824138 ], [ -121.869519001522804, 39.781389999319536 ], [ -121.869439000973571, 39.781337999029127 ], [ -121.869358001767807, 39.781286999115316 ], [ -121.869275001628282, 39.781237999102757 ], [ -121.869192001604844, 39.781188999030832 ], [ -121.869090000651568, 39.781131998789 ], [ -121.868847000839835, 39.780997999477563 ], [ -121.867596001630872, 39.780312999265973 ], [ -121.8673430013623, 39.78015299865482 ], [ -121.867343000636552, 39.780153999293553 ], [ -121.867353001547627, 39.780523999478397 ], [ -121.867357000846425, 39.78066899941944 ], [ -121.867373001037038, 39.7811789993982 ], [ -121.867375001485982, 39.781243999061907 ], [ -121.867383001202285, 39.781464998894748 ], [ -121.867429001437145, 39.782907998787429 ], [ -121.867644000966962, 39.782905998817931 ], [ -121.867611001089244, 39.78657199949977 ], [ -121.867604000967802, 39.787368999378614 ], [ -121.86759100086131, 39.788528999005614 ], [ -121.867589001735837, 39.788718998761631 ], [ -121.871332001376032, 39.788739998882576 ], [ -121.871378001089667, 39.788819999135001 ], [ -121.87147000133389, 39.788980999314497 ], [ -121.871521001501108, 39.789069998974796 ], [ -121.871487001190403, 39.789069998814355 ], [ -121.867586001509366, 39.789048999072008 ], [ -121.867589001393142, 39.789107999443502 ], [ -121.867647001319412, 39.790232999090463 ], [ -121.867672000914283, 39.797099999430593 ], [ -121.86760200082901, 39.799534999135155 ], [ -121.867605000830451, 39.801093999322362 ], [ -121.869732001370295, 39.803656999045614 ], [ -121.870225001191486, 39.804251999403114 ], [ -121.870268001038809, 39.804250999291604 ], [ -121.870278001441363, 39.804250999494208 ], [ -121.87062200096436, 39.804246998728104 ], [ -121.872168000908744, 39.804228998697901 ], [ -121.872280001599293, 39.804227998838769 ], [ -121.872370001036487, 39.804228998819873 ], [ -121.872428001298772, 39.804229999216133 ], [ -121.872427001244034, 39.804799998765645 ], [ -121.872504000631537, 39.805482998848333 ], [ -121.872473000632425, 39.805738999474869 ], [ -121.872427001484539, 39.806109999467083 ], [ -121.872426000988995, 39.806864998794538 ], [ -121.872426001494333, 39.806976998996767 ], [ -121.872847000925731, 39.807483999253314 ], [ -121.875897001352257, 39.811160998836776 ], [ -121.876181001106133, 39.811502998739847 ], [ -121.876203000616499, 39.811528999432255 ], [ -121.876227000639105, 39.811556998972627 ], [ -121.876281001009886, 39.811622998900368 ], [ -121.876520000613326, 39.811621999475925 ], [ -121.876510000854623, 39.812027999501389 ], [ -121.87667400122892, 39.812221999262626 ], [ -121.876860000806445, 39.812440998712525 ], [ -121.877527001147186, 39.813227999023248 ], [ -121.877538000837546, 39.8132409987846 ], [ -121.877786000927685, 39.813533999367024 ], [ -121.876816001137399, 39.814019998966593 ], [ -121.876459000818542, 39.8141989994146 ], [ -121.876458001658534, 39.814254999203889 ], [ -121.876380001066167, 39.814253998738764 ], [ -121.876212001530092, 39.814252999186422 ], [ -121.876204000673667, 39.814587998754391 ], [ -121.876208001497304, 39.814775999042638 ], [ -121.875361001770813, 39.814577999149748 ], [ -121.874973001193567, 39.81515499879923 ], [ -121.874836001506935, 39.815002998724829 ], [ -121.874131000902054, 39.816050998945627 ], [ -121.873632001409206, 39.816791999397928 ], [ -121.870582001458516, 39.817530999169712 ], [ -121.869096001738399, 39.815781998736874 ], [ -121.869071001747841, 39.815762998706347 ], [ -121.869064001246969, 39.815757999508918 ], [ -121.869055001272869, 39.81574299903842 ], [ -121.869043000923483, 39.815727998835598 ], [ -121.869031001045073, 39.815713999257639 ], [ -121.869020000909231, 39.815699998988187 ], [ -121.869008001040214, 39.815685999407734 ], [ -121.868996001177692, 39.815671998925296 ], [ -121.868984001318253, 39.815657999342221 ], [ -121.868966001657967, 39.815635998889341 ], [ -121.868695000870176, 39.81530999942845 ], [ -121.868677000684571, 39.815288998652733 ], [ -121.868660000700302, 39.815268998713989 ], [ -121.868636001200855, 39.815250999427199 ], [ -121.868619001237448, 39.815230999482246 ], [ -121.868603001014591, 39.815210998848066 ] ] ] } }
]
}
