{
"type": "FeatureCollection",
"name": "district-boundary",
"crs": { "type": "name", "properties": { "name": "urn:ogc:def:crs:OGC:1.3:CRS84" } },
"features": [
{ "type": "Feature", "properties": { "DISTRICT": "6", "NAME": "District #6" }, "geometry": { "type": "Polygon", "coordinates": [ [ [ -121.792314353984892, 39.75443748368216 ], [ -121.792137924911117, 39.754700095827175 ], [ -121.792830323696151, 39.75502302492901 ], [ -121.793552784629028, 39.755359967597393 ], [ -121.793661192358684, 39.755130981631957 ], [ -121.794466608935693, 39.755508814179478 ], [ -121.795083759526946, 39.755798336578955 ], [ -121.795407758726782, 39.755950319747988 ], [ -121.79500219087528, 39.756471026911015 ], [ -121.795327504286405, 39.756622731534698 ], [ -121.795791760560348, 39.756659767285655 ], [ -121.796367336414079, 39.756928183535315 ], [ -121.796386628987605, 39.756937178614891 ], [ -121.796362386899744, 39.756981822776517 ], [ -121.79576517697177, 39.756703327359084 ], [ -121.795588103187697, 39.757035084529917 ], [ -121.795310910686496, 39.757554385126859 ], [ -121.795183424772333, 39.757798203048118 ], [ -121.794938356638895, 39.757580127557205 ], [ -121.794915339031121, 39.757560004222611 ], [ -121.794891867772094, 39.757540184521169 ], [ -121.79486795907269, 39.757520711713241 ], [ -121.794843625895751, 39.757501542588749 ], [ -121.794818841306835, 39.757482709524822 ], [ -121.794793647347404, 39.757464201786334 ], [ -121.79476804505002, 39.757446065309253 ], [ -121.794742018148526, 39.757428275746783 ], [ -121.794715598213585, 39.757410811537397 ], [ -121.794688796814384, 39.75739370692672 ], [ -121.794641372342312, 39.757364917014826 ], [ -121.794613534107597, 39.757348822036171 ], [ -121.794567396288443, 39.757323407365469 ], [ -121.794099885509127, 39.757073568560727 ], [ -121.79344480910369, 39.756723478087594 ], [ -121.792985434837476, 39.756503401963876 ], [ -121.792659513503281, 39.756347259360737 ], [ -121.792604872962869, 39.756320097838021 ], [ -121.7925771629819, 39.756305521134344 ], [ -121.792549774949819, 39.756290595529279 ], [ -121.79252275103596, 39.756275267056893 ], [ -121.79249606420673, 39.756259601419018 ], [ -121.792469742535047, 39.756243576148456 ], [ -121.792443770848465, 39.756227192119468 ], [ -121.792418208596189, 39.756210471053222 ], [ -121.792392982294189, 39.756193402012308 ], [ -121.792368180593968, 39.75617599686214 ], [ -121.792343756786707, 39.756158266328526 ], [ -121.792319743615607, 39.756140187052026 ], [ -121.792282446860725, 39.756110840306349 ], [ -121.79225952835391, 39.75609195414193 ], [ -121.792237033151281, 39.756072776000373 ], [ -121.792214961351519, 39.756053272557068 ], [ -121.792193340827168, 39.75603348889522 ], [ -121.792172173911993, 39.756013425019205 ], [ -121.792151474643546, 39.755993069245278 ], [ -121.792131226647399, 39.755972434154152 ], [ -121.79211144619893, 39.755951540490393 ], [ -121.792092147332966, 39.755930377470897 ], [ -121.792073330014546, 39.75590895680461 ], [ -121.792054994208783, 39.755887290200441 ], [ -121.792037153921029, 39.755865376782758 ], [ -121.792019810285865, 39.755843227361773 ], [ -121.792002977300754, 39.755820843763829 ], [ -121.791986639733864, 39.755798246677784 ], [ -121.791982825091253, 39.755792730506954 ], [ -121.791543476762953, 39.755587864024825 ], [ -121.79153645821556, 39.755598310242441 ], [ -121.791297284831643, 39.755954291016316 ], [ -121.791052118275744, 39.756319189919971 ], [ -121.790559749609315, 39.757052031222791 ], [ -121.790281373883687, 39.757466326267284 ], [ -121.790025422770526, 39.757879780627064 ], [ -121.789894665247743, 39.758069161922215 ], [ -121.789893595187692, 39.758070706471273 ], [ -121.78983300513913, 39.758158461855366 ], [ -121.789769442260308, 39.758244802342091 ], [ -121.789577090013964, 39.75850607229436 ], [ -121.789097059273885, 39.759201298804754 ], [ -121.788795866416677, 39.75963748688168 ], [ -121.788416562990875, 39.760179683630049 ], [ -121.788084879176679, 39.760660051545777 ], [ -121.787788881584888, 39.761088700333858 ], [ -121.787506302731828, 39.761497922484985 ], [ -121.787871265752983, 39.76177155845982 ], [ -121.787880324619337, 39.761778354148099 ], [ -121.787942142779542, 39.761824700662984 ], [ -121.788210001178584, 39.762025998684656 ], [ -121.788204111123321, 39.762031436263918 ], [ -121.788197001628575, 39.762037999292566 ], [ -121.787834369004003, 39.762351477003797 ], [ -121.787805069843174, 39.762376837606674 ], [ -121.787795860033071, 39.762384807279837 ], [ -121.787681956107733, 39.762299410874483 ], [ -121.787201522242256, 39.761939201079869 ], [ -121.786878219342299, 39.762407406951496 ], [ -121.786640600192854, 39.762751510274505 ], [ -121.786635434407145, 39.762745914038788 ], [ -121.78648679664181, 39.762948097028413 ], [ -121.786396514299511, 39.76307382487375 ], [ -121.786319904420623, 39.763180499399532 ], [ -121.786243291971928, 39.763287174767562 ], [ -121.786166716742542, 39.763393815023157 ], [ -121.786006244839953, 39.763589828778564 ], [ -121.785918479962575, 39.76369125524689 ], [ -121.785828426369306, 39.763791492198273 ], [ -121.785735644436926, 39.763889657069043 ], [ -121.785641591196949, 39.763988243766129 ], [ -121.785544865812014, 39.764084698129501 ], [ -121.785444400398887, 39.764181315823095 ], [ -121.785265457264387, 39.764342573930122 ], [ -121.785159826223449, 39.764433295156728 ], [ -121.785052152275355, 39.764522580487515 ], [ -121.784942472875329, 39.764610393958492 ], [ -121.78483082543228, 39.764696714917172 ], [ -121.784717243829704, 39.764781530810588 ], [ -121.784681894458458, 39.764807370422247 ], [ -121.784646727170355, 39.764832814960876 ], [ -121.783872190305061, 39.765352968153685 ], [ -121.783612559932436, 39.76547040917832 ], [ -121.783744664634412, 39.76555772975091 ], [ -121.783894067338949, 39.765610862676773 ], [ -121.784607587082036, 39.765407774070596 ], [ -121.785615266140979, 39.765100331932864 ], [ -121.78590588863301, 39.765038914221719 ], [ -121.786073357809627, 39.765014885109593 ], [ -121.786633307218864, 39.76499496128563 ], [ -121.787401799402076, 39.764990099649253 ], [ -121.787480638897478, 39.764982733953389 ], [ -121.787837445380703, 39.764949394076829 ], [ -121.787898180693205, 39.764943721170376 ], [ -121.787990654089668, 39.764916580208023 ], [ -121.788166835184327, 39.764864872630731 ], [ -121.78849023620073, 39.76473731348235 ], [ -121.788612582043228, 39.764689049971771 ], [ -121.789577274924341, 39.764290887262824 ], [ -121.789814027527754, 39.764125768262524 ], [ -121.7899674223126, 39.763951186272244 ], [ -121.790060478353737, 39.763724405204101 ], [ -121.79007266208626, 39.763505379698749 ], [ -121.789900089707871, 39.7625496136843 ], [ -121.789934842307062, 39.762472625797741 ], [ -121.789988474214027, 39.762430215991493 ], [ -121.790453990899152, 39.76223740056988 ], [ -121.790975400194128, 39.762032272149717 ], [ -121.791583383455205, 39.761651857005674 ], [ -121.791740449310765, 39.761425746122072 ], [ -121.791947678131052, 39.760718872901286 ], [ -121.791999736420891, 39.760607689330122 ], [ -121.792263687113163, 39.760318227486415 ], [ -121.793015650303374, 39.759558208390608 ], [ -121.793207920083262, 39.759375368909879 ], [ -121.793610043105019, 39.759088553112903 ], [ -121.793794168134013, 39.75892038116347 ], [ -121.795516302960309, 39.758254974189086 ], [ -121.795548671258388, 39.758242466888255 ], [ -121.795668897431014, 39.758202020037551 ], [ -121.795746426574752, 39.758130768890695 ], [ -121.795840446447656, 39.758239726225312 ], [ -121.795974954462494, 39.758395601323478 ], [ -121.796127919421522, 39.75848376219016 ], [ -121.796297825102343, 39.758578129888733 ], [ -121.796403225323473, 39.758652990697811 ], [ -121.796570910989161, 39.758769907941584 ], [ -121.799386116492386, 39.7597121317119 ], [ -121.799779330513616, 39.759848504625275 ], [ -121.80227948705074, 39.760603953347172 ], [ -121.80393985787606, 39.761150521138219 ], [ -121.804344868274768, 39.761337626963844 ], [ -121.805397182403183, 39.762161987938654 ], [ -121.805509258372794, 39.7621432589739 ], [ -121.805591509906606, 39.762159847391523 ], [ -121.805661495923275, 39.762200059975207 ], [ -121.806369199336203, 39.761880651104192 ], [ -121.806594291267658, 39.761801407835414 ], [ -121.807349446493888, 39.761719526226116 ], [ -121.808034505610806, 39.761746282693409 ], [ -121.808415054189425, 39.761692495510459 ], [ -121.808733879325388, 39.761657278708824 ], [ -121.809331392129295, 39.761472824371786 ], [ -121.809624534748892, 39.761344211501353 ], [ -121.810032263654122, 39.761265236075609 ], [ -121.810510151676141, 39.761232272266795 ], [ -121.810515272374715, 39.761746799909119 ], [ -121.810228113335086, 39.761746337468459 ], [ -121.810224210604829, 39.762006495063545 ], [ -121.810258456037332, 39.762068507538487 ], [ -121.810353299682632, 39.762103203833689 ], [ -121.810522075208496, 39.76210394748621 ], [ -121.810530516925056, 39.762722344973177 ], [ -121.810544817529745, 39.763037823156537 ], [ -121.810556826287922, 39.763470784025252 ], [ -121.810559953011847, 39.763583479382142 ], [ -121.810599510916902, 39.764625572090694 ], [ -121.810971754295522, 39.764624173427492 ], [ -121.811242857629964, 39.764619174546034 ], [ -121.811429374379841, 39.764571150518357 ], [ -121.811542374315678, 39.764482150476276 ], [ -121.811654373717118, 39.764360149899801 ], [ -121.811738374000953, 39.76428415041255 ], [ -121.812292374123217, 39.764265150670134 ], [ -121.812377374226017, 39.764239150429283 ], [ -121.812391946664775, 39.76421583362994 ], [ -121.812395445669438, 39.764165600614618 ], [ -121.812441923401224, 39.764052290837263 ], [ -121.812459968209154, 39.763636445883122 ], [ -121.812940598945502, 39.763651491424426 ], [ -121.813360268236337, 39.763644443079343 ], [ -121.813643789778837, 39.763642045087487 ], [ -121.813691901364962, 39.763641637556468 ], [ -121.815256972408463, 39.763628385715066 ], [ -121.815280345245711, 39.764236213957595 ], [ -121.813411468859996, 39.76424682802277 ], [ -121.813414968982869, 39.764836813340459 ], [ -121.813427066931155, 39.765184674664638 ], [ -121.813431797110724, 39.765320670980579 ], [ -121.813443988484011, 39.765671205580027 ], [ -121.813444139775569, 39.766315450721706 ], [ -121.814472803408194, 39.766305809340587 ], [ -121.814938330814854, 39.766176217399078 ], [ -121.815339803032174, 39.766157889402677 ], [ -121.815341117134082, 39.767075446668912 ], [ -121.815364614866098, 39.769296752679324 ], [ -121.817338884044673, 39.769310469253107 ], [ -121.817840581850021, 39.769352963591558 ], [ -121.818720276138791, 39.769503243228414 ], [ -121.81889876509932, 39.769531078352394 ], [ -121.819260483673006, 39.769587485506442 ], [ -121.819948542905138, 39.769600660703659 ], [ -121.819965899927055, 39.769888318023426 ], [ -121.819837992770019, 39.770172209034484 ], [ -121.819667643109824, 39.770356651382372 ], [ -121.819468854924921, 39.770514657553846 ], [ -121.819530258535252, 39.770572624203616 ], [ -121.819633289732991, 39.770669886855629 ], [ -121.819633142636178, 39.770727079158526 ], [ -121.819395001624102, 39.771104185751376 ], [ -121.819156623238598, 39.771572799464884 ], [ -121.819141269077974, 39.771778668913271 ], [ -121.819155177849055, 39.772133284680912 ], [ -121.819213851710103, 39.772373584142791 ], [ -121.819317055063166, 39.772591073982298 ], [ -121.819416822915812, 39.772721950110778 ], [ -121.81950911126809, 39.772843016307142 ], [ -121.819819581548629, 39.77316376958386 ], [ -121.820172322551883, 39.773495623344417 ], [ -121.820233643691424, 39.773553312024603 ], [ -121.820410940778856, 39.773782353264252 ], [ -121.820528768670002, 39.77407993365096 ], [ -121.820558211164098, 39.774160047946744 ], [ -121.820614382886788, 39.774306911859853 ], [ -121.820746231680999, 39.775502851505145 ], [ -121.820771104559668, 39.775728457160483 ], [ -121.822152124475295, 39.775311959792255 ], [ -121.822192292072245, 39.775299846109981 ], [ -121.82261127787018, 39.775173481007499 ], [ -121.823589022521375, 39.775696200399913 ], [ -121.825033345388448, 39.775605868930718 ], [ -121.825101482543758, 39.775601607299052 ], [ -121.825615531071122, 39.775737730922053 ], [ -121.825708450994725, 39.775761812721711 ], [ -121.826620795349172, 39.775998260639582 ], [ -121.827034311641214, 39.776105426651185 ], [ -121.827188109502259, 39.776142387950117 ], [ -121.829374105825522, 39.776708877846339 ], [ -121.830312873664695, 39.776952139860931 ], [ -121.83043862169221, 39.776953040595949 ], [ -121.830742112947917, 39.77695523072903 ], [ -121.830871921214367, 39.776348090824619 ], [ -121.830888260764368, 39.776186342677228 ], [ -121.831065868320195, 39.776209225035586 ], [ -121.831593017811883, 39.77622530303163 ], [ -121.832144955506195, 39.776112633841549 ], [ -121.832524320240182, 39.775951320318313 ], [ -121.832893173535638, 39.77573651170372 ], [ -121.833223072122991, 39.775478602948112 ], [ -121.833444250332363, 39.775112480109883 ], [ -121.833900711538718, 39.774501985445355 ], [ -121.834113348026733, 39.774269726306677 ], [ -121.834392825914549, 39.774093558023274 ], [ -121.834778360564158, 39.7739046070038 ], [ -121.835202763610965, 39.773793228733211 ], [ -121.835629714675093, 39.773738547760836 ], [ -121.835739970158201, 39.774521859651301 ], [ -121.83589611866735, 39.775485079602191 ], [ -121.836001640144715, 39.775839945557323 ], [ -121.836154808032759, 39.776147785357864 ], [ -121.836443782930445, 39.776562052718191 ], [ -121.836780678977661, 39.776824853853434 ], [ -121.837218228970983, 39.777083251086765 ], [ -121.837908875792991, 39.777308463418841 ], [ -121.838281451728349, 39.777353693700555 ], [ -121.838440788517232, 39.777373040739938 ], [ -121.839041069282075, 39.777365631425404 ], [ -121.839696049228777, 39.777259904640772 ], [ -121.840134937860341, 39.777102920455626 ], [ -121.841815759030681, 39.77627552583774 ], [ -121.842248614806167, 39.776113893496181 ], [ -121.842897605015253, 39.77599424265604 ], [ -121.843766678645878, 39.775949003521561 ], [ -121.843767000815333, 39.77594900034623 ], [ -121.843772001470825, 39.77691399905391 ], [ -121.843781172474351, 39.776974363122072 ], [ -121.843869059920848, 39.78319083620422 ], [ -121.842172427231588, 39.783236243678182 ], [ -121.842161000740376, 39.783184999442931 ], [ -121.841987483882392, 39.783188851316574 ], [ -121.840214842387354, 39.783210052929476 ], [ -121.839155787963875, 39.783222993346399 ], [ -121.836793001309232, 39.783251998727046 ], [ -121.835601001005429, 39.783266998882475 ], [ -121.834417001392765, 39.783280999385418 ], [ -121.83190700071502, 39.783310999382088 ], [ -121.828403001664782, 39.783353999130732 ], [ -121.825020000917604, 39.783393998685121 ], [ -121.806986001558982, 39.783849998889863 ], [ -121.806999001099982, 39.784353999199212 ], [ -121.803523000870086, 39.784465999167907 ], [ -121.803429001766304, 39.784468999171217 ], [ -121.79612900146239, 39.777387999052245 ], [ -121.795840000944622, 39.776765998777691 ], [ -121.793012001142102, 39.770692999040236 ], [ -121.792860001618592, 39.770391998857768 ], [ -121.793614000957973, 39.769883998897789 ], [ -121.792546001654046, 39.769890999391507 ], [ -121.787908000804762, 39.772734999203543 ], [ -121.782516000921447, 39.776039999414792 ], [ -121.776824001475418, 39.776930998876118 ], [ -121.769236000860701, 39.777644998976278 ], [ -121.768229000635557, 39.777741998831928 ], [ -121.767119001152878, 39.778215999000132 ], [ -121.765009001692732, 39.779116999497617 ], [ -121.75865900072867, 39.781827999217391 ], [ -121.756106001767407, 39.784687998714723 ], [ -121.750673000723964, 39.790623999273947 ], [ -121.745759000739938, 39.796428998998813 ], [ -121.745167001376345, 39.798191999322341 ], [ -121.744872001597827, 39.799069998780837 ], [ -121.745267001010859, 39.799070999384078 ], [ -121.744770000636436, 39.799376998928231 ], [ -121.740220000880214, 39.802172999326231 ], [ -121.734811001063321, 39.805496999173741 ], [ -121.732136001082054, 39.805505999242307 ], [ -121.732083000626616, 39.806646999055232 ], [ -121.731765001453482, 39.813506999180881 ], [ -121.726611001318673, 39.81379499878264 ], [ -121.722856001394561, 39.814004998891797 ], [ -121.722784001353645, 39.814008998679867 ], [ -121.722670000641514, 39.814014999018646 ], [ -121.722633000895883, 39.814016998759989 ], [ -121.722195001606778, 39.814041998711232 ], [ -121.72145600143574, 39.814082999436309 ], [ -121.713442001339587, 39.813939998824132 ], [ -121.712980000939623, 39.813931998850009 ], [ -121.712912001616587, 39.813931998930144 ], [ -121.712372001752669, 39.813934998992117 ], [ -121.712538001128664, 39.813028999455199 ], [ -121.712473000623504, 39.812989999111764 ], [ -121.712483001381258, 39.812934998732501 ], [ -121.712559001747962, 39.812911999409707 ], [ -121.713670001234718, 39.806855998964181 ], [ -121.713686000711888, 39.806773999440793 ], [ -121.713702000757195, 39.806698998941904 ], [ -121.713721001352724, 39.806624999156696 ], [ -121.713740001328389, 39.806551999097422 ], [ -121.713754001544629, 39.806501998748509 ], [ -121.713762001253372, 39.806476998749723 ], [ -121.713785001325263, 39.806402998756546 ], [ -121.713810001149639, 39.806329998843232 ], [ -121.713818001414836, 39.806307998938884 ], [ -121.713836001696592, 39.806256998651079 ], [ -121.713847001320374, 39.806229999259394 ], [ -121.713864000815718, 39.806184999434606 ], [ -121.713803000860537, 39.80615199881025 ], [ -121.714004001167254, 39.805875999514093 ], [ -121.714057000838167, 39.805776998784907 ], [ -121.714094001234074, 39.805711998759598 ], [ -121.714096001563021, 39.805707999278056 ], [ -121.714136000641432, 39.805638999476734 ], [ -121.714178001170637, 39.805569999111277 ], [ -121.7142220014006, 39.805501998808865 ], [ -121.714267001732168, 39.805434998845278 ], [ -121.714314001162407, 39.80536799920668 ], [ -121.714362000692915, 39.805301999003255 ], [ -121.714411001486994, 39.805236999137357 ], [ -121.714463000960677, 39.805171999311241 ], [ -121.714515001536085, 39.805108998929505 ], [ -121.714569001761433, 39.805044999131212 ], [ -121.71453300116093, 39.804987999182792 ], [ -121.714564000720216, 39.804953998696035 ], [ -121.714594000657954, 39.804919999382008 ], [ -121.714676000727181, 39.804925999132472 ], [ -121.714748001602189, 39.804840998904282 ], [ -121.714803001593552, 39.804777999345248 ], [ -121.714859001674938, 39.80471599921065 ], [ -121.714917001426358, 39.804654999116401 ], [ -121.714976000660016, 39.804593998708157 ], [ -121.716011001155465, 39.803554999012597 ], [ -121.716067000792521, 39.80350499868419 ], [ -121.716122001328557, 39.803453998889509 ], [ -121.716176001599294, 39.803401998726493 ], [ -121.716229001600951, 39.803348999097103 ], [ -121.716280000604925, 39.803294999394154 ], [ -121.716330001137848, 39.803240999065594 ], [ -121.716380000968087, 39.803185998979487 ], [ -121.716427000868904, 39.803130998856339 ], [ -121.716474001236733, 39.80307499898079 ], [ -121.716519000616401, 39.803017999040613 ], [ -121.716563001530673, 39.802960999382229 ], [ -121.716606001021489, 39.802902999365159 ], [ -121.716647000698913, 39.802843999291305 ], [ -121.716687000749943, 39.802784999500325 ], [ -121.716726001180817, 39.802725999092587 ], [ -121.716763000635893, 39.802665999530547 ], [ -121.716799001016199, 39.802604998720994 ], [ -121.716834000608586, 39.802543999096542 ], [ -121.716867001037642, 39.802482999159622 ], [ -121.716899001227702, 39.802420998876109 ], [ -121.716944001586469, 39.80232799933092 ], [ -121.717316001372964, 39.801524998962186 ], [ -121.718292001339478, 39.799430999155319 ], [ -121.718239000819253, 39.799382999512773 ], [ -121.718275000645008, 39.799305998813963 ], [ -121.718351001733183, 39.79928999922447 ], [ -121.718603001541794, 39.798820998697487 ], [ -121.719405001257741, 39.797999999484958 ], [ -121.719591001639586, 39.797809998983666 ], [ -121.720550001591221, 39.796165998778662 ], [ -121.720873001486282, 39.79561299877453 ], [ -121.720915001201575, 39.795467998672308 ], [ -121.721001001222859, 39.79546699908277 ], [ -121.722765001376601, 39.79545499918104 ], [ -121.722544000750446, 39.792674999044991 ], [ -121.722501001200882, 39.792129999267246 ], [ -121.722608001679433, 39.791877999385179 ], [ -121.722656001507588, 39.791765999443754 ], [ -121.723037001122904, 39.790869999200403 ], [ -121.72423600068322, 39.788051999426777 ], [ -121.724492000852905, 39.787451999101627 ], [ -121.724515001545171, 39.787400999525595 ], [ -121.724535001638472, 39.787355999471096 ], [ -121.724557000692741, 39.7873129990626 ], [ -121.724579001312449, 39.787268998913376 ], [ -121.724603001314705, 39.787225998670088 ], [ -121.72462800061885, 39.78718299895602 ], [ -121.724653001059778, 39.787139999238654 ], [ -121.72468000087764, 39.787097999424809 ], [ -121.724707000666697, 39.787055998703408 ], [ -121.724736001416119, 39.787013999048384 ], [ -121.724765001708434, 39.78697299912438 ], [ -121.724795001298162, 39.786931998825281 ], [ -121.724827001420479, 39.786891999328404 ], [ -121.724859001509813, 39.786851998921527 ], [ -121.724892001635581, 39.786812998779546 ], [ -121.724926001050164, 39.786773999159969 ], [ -121.724960001594326, 39.786734999532733 ], [ -121.724996001504877, 39.786696998898748 ], [ -121.725033001445667, 39.786659999426917 ], [ -121.725070001768898, 39.786621999303314 ], [ -121.725108001707355, 39.786585999178875 ], [ -121.725147000932623, 39.78654999867139 ], [ -121.725187001774486, 39.786513998686047 ], [ -121.725228001480815, 39.786478998955289 ], [ -121.725269000731018, 39.786444998948781 ], [ -121.72531100159668, 39.786410999462014 ], [ -121.725354001331013, 39.786377999326817 ], [ -121.725401001474367, 39.786342999114026 ], [ -121.726446000893489, 39.785553999352338 ], [ -121.726496000999404, 39.785516998974963 ], [ -121.726546001049073, 39.785479999476536 ], [ -121.726594001661653, 39.785441999177991 ], [ -121.726642001450443, 39.785402999117217 ], [ -121.726688000631569, 39.785362999157513 ], [ -121.726734000927621, 39.785322999181929 ], [ -121.726779000699509, 39.785282998668528 ], [ -121.726823000731414, 39.785240999040148 ], [ -121.726866001407572, 39.785198998878819 ], [ -121.726908001558826, 39.78515699908364 ], [ -121.726949001581687, 39.785113999015458 ], [ -121.726989001476227, 39.785069998675283 ], [ -121.727028000849046, 39.785025998704306 ], [ -121.72706600086947, 39.784981999106208 ], [ -121.727104001234622, 39.784936998854867 ], [ -121.727140001003832, 39.784890998719185 ], [ -121.727175001424314, 39.784844998959123 ], [ -121.727209001721519, 39.784797998932596 ], [ -121.727242001505616, 39.784750999280753 ], [ -121.72727400078206, 39.784703999103762 ], [ -121.727304000640089, 39.784655999051303 ], [ -121.727334001624456, 39.784607998992989 ], [ -121.727363001324349, 39.784558998669453 ], [ -121.727390001222759, 39.784509999113723 ], [ -121.727417001086906, 39.784460998650239 ], [ -121.727442001539444, 39.784410999216561 ], [ -121.727468000842109, 39.784355998881018 ], [ -121.727489001347564, 39.784309999051004 ], [ -121.727511001487542, 39.784259998963428 ], [ -121.727531001062829, 39.784208999005848 ], [ -121.727551000991596, 39.78415699930396 ], [ -121.727569000762557, 39.784105999215818 ], [ -121.7275870008894, 39.784053999383993 ], [ -121.727603001246621, 39.784001999427211 ], [ -121.727620001193458, 39.783939998966339 ], [ -121.727922001001858, 39.782815999053021 ], [ -121.72794000078197, 39.782750998902507 ], [ -121.727951001686634, 39.78271499939904 ], [ -121.727963001063543, 39.782677998856116 ], [ -121.727976001649097, 39.782641999464346 ], [ -121.727989001057423, 39.782605999167295 ], [ -121.728003001676583, 39.782570999120345 ], [ -121.728018000758965, 39.782534998933492 ], [ -121.728034001049508, 39.782499998996016 ], [ -121.728054001439034, 39.782459998776311 ], [ -121.728451001189569, 39.782061998933031 ], [ -121.728973000736758, 39.781716998797855 ], [ -121.729362001471912, 39.781459999518674 ], [ -121.730111001746579, 39.780997999140638 ], [ -121.73026100132779, 39.780785999363459 ], [ -121.730264001125647, 39.780779998774705 ], [ -121.730325000850371, 39.780642999068981 ], [ -121.730352000868223, 39.780623999135926 ], [ -121.730411000965859, 39.780577999248997 ], [ -121.730467001420081, 39.780533999157157 ], [ -121.730523001320606, 39.780487998651971 ], [ -121.730578001080985, 39.780440998791711 ], [ -121.730632000704347, 39.780392998677065 ], [ -121.730685001016369, 39.780344998953986 ], [ -121.730737001192452, 39.780295998979149 ], [ -121.730788001232469, 39.780245998753841 ], [ -121.730837001561923, 39.780195999339902 ], [ -121.730886000992669, 39.780144999259846 ], [ -121.730933001055064, 39.780092999352334 ], [ -121.730979000650805, 39.780040998941416 ], [ -121.73102400127911, 39.779987999190148 ], [ -121.731068000609099, 39.779933999193545 ], [ -121.731110001413327, 39.779879999120467 ], [ -121.731151000922907, 39.779824998804919 ], [ -121.731191001139038, 39.779769998895468 ], [ -121.731230001230259, 39.779713998748207 ], [ -121.731268000864304, 39.779657999006382 ], [ -121.731304001149326, 39.779600999451098 ], [ -121.731339000986011, 39.779543999403053 ], [ -121.731372001483152, 39.779485998643786 ], [ -121.731405000754961, 39.779427998772007 ], [ -121.731436001528692, 39.77936999883628 ], [ -121.731465000634159, 39.779310999088402 ], [ -121.731494001187912, 39.779250998692255 ], [ -121.731521001756889, 39.779191998875447 ], [ -121.73154600066745, 39.779131999249742 ], [ -121.731570000644638, 39.779070999399558 ], [ -121.731593001365269, 39.779009999067348 ], [ -121.731615001661069, 39.778948999151687 ], [ -121.731635001154203, 39.778887999175112 ], [ -121.731663000704216, 39.778792999148827 ], [ -121.731782001635963, 39.778366998799761 ], [ -121.732093000811389, 39.777255998641337 ], [ -121.732177001660745, 39.776954999444847 ], [ -121.733181000764375, 39.776988998901182 ], [ -121.735750000993633, 39.777077999134733 ], [ -121.735991000719551, 39.777085998944159 ], [ -121.737079001144025, 39.776679998899297 ], [ -121.737547000797235, 39.776504998710138 ], [ -121.750209000780146, 39.77177099949801 ], [ -121.750146000753332, 39.76992299905163 ], [ -121.751046001001697, 39.769934998886932 ], [ -121.754712000627961, 39.769984998864075 ], [ -121.754763000774517, 39.769985999444657 ], [ -121.754750001188782, 39.768957998877113 ], [ -121.754746001422717, 39.768690998976311 ], [ -121.754735001233811, 39.76814199935437 ], [ -121.754718001447088, 39.766486999119572 ], [ -121.754678001724244, 39.762693999330722 ], [ -121.75467100106259, 39.762088999256228 ], [ -121.754668000871035, 39.761793998772546 ], [ -121.754612000930308, 39.759658999424353 ], [ -121.754608001113127, 39.758914999186537 ], [ -121.755779001440288, 39.758930998862567 ], [ -121.75581300123288, 39.758930999124289 ], [ -121.757342000804101, 39.758950999091219 ], [ -121.758701000779624, 39.758967999172619 ], [ -121.758947001578079, 39.758970998813993 ], [ -121.75929900118804, 39.758975998910785 ], [ -121.759447000864768, 39.758981999031555 ], [ -121.759942001685502, 39.759001999090174 ], [ -121.760256000707841, 39.75901399905262 ], [ -121.760632001602701, 39.759029998940989 ], [ -121.760937001142153, 39.759041999506962 ], [ -121.761239001656705, 39.759053999506158 ], [ -121.761531001286528, 39.759065999192181 ], [ -121.761843000762084, 39.759078998726814 ], [ -121.762127000785185, 39.759099999212964 ], [ -121.762430001727751, 39.759110999328776 ], [ -121.762740001006208, 39.759120999507019 ], [ -121.763041000764858, 39.759131999421783 ], [ -121.763343001756226, 39.759141999028628 ], [ -121.763648000926111, 39.75915299912468 ], [ -121.763958000688149, 39.759163999448269 ], [ -121.764274001147172, 39.759174999259962 ], [ -121.764367001547967, 39.759177999114435 ], [ -121.764649000906431, 39.759187999475472 ], [ -121.764984001150168, 39.759198999328888 ], [ -121.765577001029257, 39.759219998968824 ], [ -121.766454001137149, 39.759249999485398 ], [ -121.766867001038548, 39.759263999297794 ], [ -121.76745200118674, 39.759284998871912 ], [ -121.767993001279763, 39.759302998770394 ], [ -121.768487001510024, 39.759320999253674 ], [ -121.768792000850652, 39.759330998882326 ], [ -121.768979000671848, 39.759327999200885 ], [ -121.769471001595008, 39.759320998808576 ], [ -121.7698590013635, 39.759314999137715 ], [ -121.770254000608276, 39.759308999236367 ], [ -121.770674001159676, 39.75930299896951 ], [ -121.771125001046073, 39.759295999171435 ], [ -121.771766000965769, 39.759286999108078 ], [ -121.772120001546156, 39.759280999035781 ], [ -121.773548000625013, 39.759242999381719 ], [ -121.773577000975564, 39.757564999516262 ], [ -121.77358700160562, 39.756952999034716 ], [ -121.773608001218605, 39.755681998695053 ], [ -121.773608001759641, 39.755636999126843 ], [ -121.773964001345632, 39.755630999183118 ], [ -121.77448200124573, 39.755626999132389 ], [ -121.775466001494962, 39.755617998671454 ], [ -121.776705001639868, 39.755606998808936 ], [ -121.777336001364716, 39.755600999198904 ], [ -121.778082001569373, 39.755593998903962 ], [ -121.778371000612225, 39.755590999091531 ], [ -121.778365001702184, 39.755180999240068 ], [ -121.778362000827343, 39.754993998847489 ], [ -121.778354001030252, 39.754392998646168 ], [ -121.778348001318719, 39.753914999342555 ], [ -121.778335001269483, 39.753000998947435 ], [ -121.778332001131645, 39.752729999485169 ], [ -121.778326000654161, 39.752337999213971 ], [ -121.778321001455609, 39.751952999030429 ], [ -121.778316001386031, 39.751602999103838 ], [ -121.778315000764266, 39.751535999447633 ], [ -121.778310001730844, 39.751157999211621 ], [ -121.778305001235069, 39.750826998969217 ], [ -121.77830000148461, 39.750425998928442 ], [ -121.778296000662536, 39.750110999214328 ], [ -121.778271001702578, 39.748139999368789 ], [ -121.77826500071717, 39.747843999030081 ], [ -121.778252000738746, 39.747435998706734 ], [ -121.778243001361687, 39.747012998746385 ], [ -121.778242000978267, 39.746849999228729 ], [ -121.77824000129786, 39.74639299912139 ], [ -121.778237001261033, 39.745796998848341 ], [ -121.768866001123754, 39.748113998880818 ], [ -121.757173000907073, 39.751003999496085 ], [ -121.757139001436713, 39.751124999388161 ], [ -121.75707200066887, 39.751140999506113 ], [ -121.756953001727567, 39.751057998724299 ], [ -121.756079001521471, 39.751273999442624 ], [ -121.754725000788824, 39.751608999171694 ], [ -121.754705000955482, 39.751613999498787 ], [ -121.754572000831118, 39.751645999012105 ], [ -121.754397001150124, 39.751244999074785 ], [ -121.754311001446467, 39.751047998997024 ], [ -121.754291001743553, 39.751052999254817 ], [ -121.754236000623791, 39.75092999865354 ], [ -121.753729000944972, 39.74980499909968 ], [ -121.753461000697641, 39.749207998978619 ], [ -121.752591001627806, 39.747275999087172 ], [ -121.752553000901301, 39.747183999494396 ], [ -121.752519000937184, 39.747099999123478 ], [ -121.75003600102248, 39.742501999465354 ], [ -121.750024001724327, 39.741516999014266 ], [ -121.750016001768799, 39.740832999162087 ], [ -121.759367000608407, 39.740830999025974 ], [ -121.759173001277262, 39.738974999174992 ], [ -121.759507000762866, 39.738914999482347 ], [ -121.759994001150233, 39.738826998860965 ], [ -121.760831001010288, 39.738673999524345 ], [ -121.761664001581906, 39.738521999404767 ], [ -121.762508000685884, 39.738366999195783 ], [ -121.763412001508868, 39.738201998886915 ], [ -121.76431400078954, 39.738036999335257 ], [ -121.764417000699339, 39.738017999375579 ], [ -121.766086000975946, 39.737711999358964 ], [ -121.767802000875719, 39.737397999182072 ], [ -121.76791200072536, 39.737377999406014 ], [ -121.768130000660221, 39.737337999208975 ], [ -121.768465001697294, 39.737276998825735 ], [ -121.769058001354196, 39.737167999512955 ], [ -121.769463001627145, 39.737093998954201 ], [ -121.770164001707215, 39.736750999314239 ], [ -121.770339001170854, 39.73666599942748 ], [ -121.770630000962896, 39.736523998717679 ], [ -121.770853000936881, 39.736506999440046 ], [ -121.771491000879891, 39.736458999415262 ], [ -121.772131001571481, 39.736409999148322 ], [ -121.772743001106619, 39.736393999091568 ], [ -121.773233000616742, 39.736380998835344 ], [ -121.773407001211041, 39.736376998936471 ], [ -121.773458000853935, 39.736374999412142 ], [ -121.773438000926646, 39.734802999455965 ], [ -121.773436001526719, 39.73463099938791 ], [ -121.77343500168358, 39.734565998773974 ], [ -121.773434000944235, 39.734501998815588 ], [ -121.773434001074079, 39.734467998931827 ], [ -121.773433000608449, 39.734404998729779 ], [ -121.773432000731546, 39.734313998992199 ], [ -121.773432001338321, 39.734298999017049 ], [ -121.773431000857158, 39.734222999251529 ], [ -121.773423001658699, 39.73360599872877 ], [ -121.773423000642609, 39.733584999294884 ], [ -121.773351001048241, 39.733584999380575 ], [ -121.773204001220549, 39.733583999283724 ], [ -121.773026001706569, 39.733583999333469 ], [ -121.77283400097167, 39.733582999354788 ], [ -121.772766001487582, 39.733582998696534 ], [ -121.772437001370562, 39.7335929992527 ], [ -121.771964000933721, 39.733584999050102 ], [ -121.772048001316634, 39.733637999448987 ], [ -121.771292001180441, 39.734005999508256 ], [ -121.771076001482427, 39.734110999176792 ], [ -121.770947001666443, 39.734173998692931 ], [ -121.770785000940919, 39.734252999292288 ], [ -121.770575001008808, 39.734354998734588 ], [ -121.7701550009957, 39.734701998838858 ], [ -121.770027001564344, 39.734807998798289 ], [ -121.769968001113583, 39.734855998895796 ], [ -121.769945001652104, 39.734874998887875 ], [ -121.769900000754703, 39.734809998701195 ], [ -121.769505000705607, 39.734245998985031 ], [ -121.769412000744097, 39.734112999378922 ], [ -121.769146001353079, 39.734256998906908 ], [ -121.769130001487682, 39.734265998676022 ], [ -121.769111001215052, 39.734274998862205 ], [ -121.769093000682247, 39.734283999205132 ], [ -121.769075001104994, 39.73429199888816 ], [ -121.769049001640212, 39.734301999501696 ], [ -121.769030001141701, 39.73430999901521 ], [ -121.769011001388648, 39.734315999010384 ], [ -121.768991000925638, 39.734322999498886 ], [ -121.768971001420368, 39.734328999326898 ], [ -121.768944001769697, 39.734336999337941 ], [ -121.768917001701652, 39.734342998924625 ], [ -121.768890001626076, 39.734348999405753 ], [ -121.76886200063656, 39.734354998815853 ], [ -121.768834001563562, 39.734358998706405 ], [ -121.768806001317884, 39.734362999488638 ], [ -121.768785001221701, 39.734364999186916 ], [ -121.76876300137846, 39.734366998718784 ], [ -121.768735000719531, 39.73436899906595 ], [ -121.768714001581898, 39.734369998995106 ], [ -121.768692001531178, 39.734370998754969 ], [ -121.76866400163118, 39.734370998669341 ], [ -121.76864200117312, 39.734369998902359 ], [ -121.768446001643269, 39.734362998870388 ], [ -121.768446001692155, 39.734485998868017 ], [ -121.768447001758332, 39.734773998764652 ], [ -121.76844800098165, 39.734934998724306 ], [ -121.7684480011266, 39.735075998845147 ], [ -121.76839900139187, 39.735075998815709 ], [ -121.768067000762244, 39.735070999302067 ], [ -121.767733000605602, 39.735077999209118 ], [ -121.767683000734536, 39.735075999193214 ], [ -121.766936001047199, 39.735084999214365 ], [ -121.766317001187218, 39.735091998777229 ], [ -121.766293001541484, 39.735024998855458 ], [ -121.766051000790696, 39.734345999263688 ], [ -121.766044001594153, 39.734325999190105 ], [ -121.766045001450408, 39.734241998950367 ], [ -121.766045000622611, 39.734236999255685 ], [ -121.766045001200538, 39.734176999336981 ], [ -121.766045001062878, 39.734154999245689 ], [ -121.766072000803717, 39.734152999350442 ], [ -121.766097001057446, 39.734150999078373 ], [ -121.766208001229629, 39.734140998651178 ], [ -121.766232001729577, 39.734138999066715 ], [ -121.766257000807215, 39.734136998758352 ], [ -121.766665000773386, 39.734148999264988 ], [ -121.766694001617182, 39.734142998755928 ], [ -121.766714001673705, 39.734125999269857 ], [ -121.766726000746573, 39.734104999300634 ], [ -121.766737001252409, 39.733890998918056 ], [ -121.766739000664643, 39.733863999491135 ], [ -121.766741000955662, 39.733841998858665 ], [ -121.766746001565792, 39.733812998656006 ], [ -121.766750001501691, 39.733791999042175 ], [ -121.766754001261916, 39.733769998768423 ], [ -121.766760001660245, 39.733747998856053 ], [ -121.766766001064738, 39.733726998699858 ], [ -121.766775000778139, 39.73369899897223 ], [ -121.766783000812552, 39.733677999176237 ], [ -121.766792001747461, 39.733656998660599 ], [ -121.766804000647582, 39.733628999468216 ], [ -121.766818001521216, 39.733601999495761 ], [ -121.766833000955117, 39.733574998797465 ], [ -121.766845001416797, 39.733555999232912 ], [ -121.766854001222157, 39.733541998821721 ], [ -121.766482000854595, 39.733392998959985 ], [ -121.766089001730592, 39.733235998642371 ], [ -121.766115000887879, 39.733223999160415 ], [ -121.766584000931843, 39.733004999425006 ], [ -121.766883000666112, 39.732818999144158 ], [ -121.767152001087084, 39.73265099926261 ], [ -121.767451000889409, 39.732531999392307 ], [ -121.767575001363042, 39.732482999430971 ], [ -121.768190001380304, 39.732237999513728 ], [ -121.768513001245211, 39.732141999030553 ], [ -121.768609000663844, 39.732112999332017 ], [ -121.768833001287888, 39.732046998732365 ], [ -121.769099001693661, 39.732050999302444 ], [ -121.769796000883346, 39.732005999173232 ], [ -121.770088001023424, 39.73204799867468 ], [ -121.770322001163535, 39.73200999902523 ], [ -121.771640001100707, 39.732216998971708 ], [ -121.772105001500393, 39.73233599879147 ], [ -121.772158001466991, 39.732348999190357 ], [ -121.772228000956005, 39.73244799912576 ], [ -121.773268001535655, 39.732169998926992 ], [ -121.773331001165971, 39.73215299916977 ], [ -121.773327000894128, 39.731852998888279 ], [ -121.773317001540605, 39.731037999266114 ], [ -121.773313001497257, 39.730681998814283 ], [ -121.773280001584908, 39.727967999132936 ], [ -121.773261001022874, 39.726392998688809 ], [ -121.773263000791886, 39.726333999518907 ], [ -121.773265001751867, 39.726248999352904 ], [ -121.777880001401954, 39.726218999143327 ], [ -121.777986946318919, 39.726217999418559 ], [ -121.777970000749562, 39.724468999223696 ], [ -121.777885001186618, 39.716223999268536 ], [ -121.777852001356706, 39.713068999084769 ], [ -121.778784000778359, 39.713249999437444 ], [ -121.77932400160492, 39.713310999341871 ], [ -121.779771001032216, 39.71336199891622 ], [ -121.780142000825322, 39.713338999145712 ], [ -121.781316001076746, 39.713199999203106 ], [ -121.782406001571019, 39.713069999467521 ], [ -121.784004001041097, 39.713078998993858 ], [ -121.78440100098905, 39.712894999175631 ], [ -121.787462001000875, 39.712494998955336 ], [ -121.788271001456607, 39.712358999536946 ], [ -121.788255001304336, 39.712242998798367 ], [ -121.788823000643831, 39.7121279989694 ], [ -121.789038000816475, 39.712083999528062 ], [ -121.789236000769733, 39.712043998931691 ], [ -121.790129000752756, 39.711862999076565 ], [ -121.791298001591855, 39.711624999353972 ], [ -121.791278001063276, 39.711121999521687 ], [ -121.791268001707579, 39.710751998881719 ], [ -121.791262001036813, 39.710514999452059 ], [ -121.790425001479292, 39.710678999099699 ], [ -121.790107001205911, 39.710741999404924 ], [ -121.789539000877724, 39.710853998959614 ], [ -121.788901000872173, 39.710983999304915 ], [ -121.788697000729542, 39.711024999147668 ], [ -121.788003000618858, 39.711165998655204 ], [ -121.787551001541644, 39.711257998667158 ], [ -121.787463000693307, 39.711275999465158 ], [ -121.787405001504737, 39.710502998652515 ], [ -121.787376001540935, 39.71010599925058 ], [ -121.787394001696441, 39.71010199938388 ], [ -121.787481001442487, 39.710080999325406 ], [ -121.787488000966576, 39.710078998923549 ], [ -121.788948001545407, 39.709724999154638 ], [ -121.789180001365395, 39.709668999391951 ], [ -121.789302001171308, 39.709638998840312 ], [ -121.789537001598276, 39.709581999475809 ], [ -121.790347001311787, 39.709475999416505 ], [ -121.790331000687956, 39.708880998748761 ], [ -121.790331001323665, 39.708863999106057 ], [ -121.78928000102951, 39.708906999396113 ], [ -121.78741600110034, 39.708981999313998 ], [ -121.787363000850092, 39.708983999452499 ], [ -121.787310001765704, 39.708985998668631 ], [ -121.787288001523606, 39.708659998757383 ], [ -121.787273001443751, 39.70843799897554 ], [ -121.787347001715801, 39.70843499923761 ], [ -121.787362001225844, 39.708433998657121 ], [ -121.788657001083436, 39.708381999473715 ], [ -121.788706001112914, 39.708212998893842 ], [ -121.788747000773469, 39.708073999460652 ], [ -121.788659000825618, 39.708029999372954 ], [ -121.788282001167403, 39.707840998726972 ], [ -121.788255001470873, 39.70782799909739 ], [ -121.788217000617038, 39.707785999010639 ], [ -121.788168001490092, 39.707732998779981 ], [ -121.788120001114578, 39.707680999193258 ], [ -121.787746001522365, 39.707498998774859 ], [ -121.787692000960334, 39.707471999489577 ], [ -121.787653001661198, 39.707452999275517 ], [ -121.787492000623217, 39.707373998954488 ], [ -121.787430001625182, 39.707343999307959 ], [ -121.787320001524137, 39.707484999250383 ], [ -121.78730000147992, 39.707509998720909 ], [ -121.787218001260243, 39.707614998993911 ], [ -121.787187001091539, 39.707139999207065 ], [ -121.787180001390567, 39.707035998980921 ], [ -121.787131001499375, 39.706299999126522 ], [ -121.787031001301401, 39.704804998660578 ], [ -121.787131000704719, 39.704825999136567 ], [ -121.787246000782346, 39.704849998939139 ], [ -121.788473001678724, 39.705110999166912 ], [ -121.788513001030381, 39.705015999389254 ], [ -121.789729000668075, 39.705267999421245 ], [ -121.789557000880336, 39.704921998970647 ], [ -121.789552000911229, 39.704912999315695 ], [ -121.78701900082163, 39.704381999095332 ], [ -121.783041000672895, 39.703552998887744 ], [ -121.778871001680599, 39.70268299886267 ], [ -121.778994000896304, 39.702401999264666 ], [ -121.779126001061499, 39.701275999089042 ], [ -121.779372000878695, 39.701130999517197 ], [ -121.779343001433318, 39.70077399922144 ], [ -121.779358000788534, 39.70074399911563 ], [ -121.779856001675256, 39.700230998699958 ], [ -121.780479001629857, 39.700008998732102 ], [ -121.78106200082965, 39.699728999172173 ], [ -121.7812860008016, 39.699754999142506 ], [ -121.781396001760527, 39.69976799885584 ], [ -121.781605000686895, 39.700050998750086 ], [ -121.781739000684823, 39.700135999145381 ], [ -121.78185000129244, 39.700204999141953 ], [ -121.782273001680394, 39.700298999179694 ], [ -121.782420001040919, 39.70037399902224 ], [ -121.782781001534033, 39.700549998815568 ], [ -121.782860000782051, 39.700587999016875 ], [ -121.78303400131432, 39.700742998912389 ], [ -121.783624000832731, 39.700889998823484 ], [ -121.783811000628774, 39.700903998922747 ], [ -121.78457300156478, 39.700958998797006 ], [ -121.784629001621312, 39.700942998722432 ], [ -121.784915001470694, 39.701197999452546 ], [ -121.784930001319452, 39.701211999336174 ], [ -121.784940000734764, 39.701221999103254 ], [ -121.784949000878882, 39.701231998844278 ], [ -121.784961001317669, 39.701244998875183 ], [ -121.784972001756117, 39.701258998648441 ], [ -121.784982001755651, 39.701272999294275 ], [ -121.784992001031824, 39.701287998807182 ], [ -121.785002001039473, 39.701301999451154 ], [ -121.785008001481415, 39.701312998879573 ], [ -121.785014001192721, 39.70132499897705 ], [ -121.785022000763348, 39.701339999336348 ], [ -121.785027000770015, 39.701350998736935 ], [ -121.785032001211945, 39.701362998808762 ], [ -121.785036001213598, 39.701374998853723 ], [ -121.785040000779986, 39.701385999127737 ], [ -121.785045000638561, 39.701401999178344 ], [ -121.785049001222831, 39.701417999204246 ], [ -121.785053001079589, 39.701434998998558 ], [ -121.78505700079387, 39.70144899948253 ], [ -121.785064001550182, 39.701464998684081 ], [ -121.785073001590959, 39.701479999065491 ], [ -121.78508100061191, 39.701490999438491 ], [ -121.78509200067549, 39.70150399942856 ], [ -121.785103001327997, 39.701512999438307 ], [ -121.785117000693049, 39.701523999059745 ], [ -121.785133000951063, 39.70153499873102 ], [ -121.785156000824642, 39.701545999473616 ], [ -121.785170001513123, 39.701551999340836 ], [ -121.785189001659191, 39.70155699865726 ], [ -121.78521100080728, 39.701561998942402 ], [ -121.785240001029777, 39.701564998953444 ], [ -121.785268001096242, 39.701565999393409 ], [ -121.785297001018733, 39.701562998969074 ], [ -121.785320000887623, 39.701557998857623 ], [ -121.785449000886899, 39.701472998841659 ], [ -121.78881300078308, 39.704519999111348 ], [ -121.789024001634033, 39.704414999337338 ], [ -121.789306001504698, 39.704272998898169 ], [ -121.789349754362632, 39.704250921104823 ], [ -121.797253731025791, 39.711363374059765 ], [ -121.79814633797686, 39.712127494087717 ], [ -121.798792663318793, 39.712700539954909 ], [ -121.799530818251711, 39.713535877965697 ], [ -121.800699628570143, 39.714848556146123 ], [ -121.803620343559089, 39.718666387979241 ], [ -121.806818003246647, 39.722889717838619 ], [ -121.808048044141543, 39.724488387129647 ], [ -121.80924734468519, 39.726063162389217 ], [ -121.810815762220486, 39.728115130793256 ], [ -121.811922916786202, 39.729570574173145 ], [ -121.813153191098792, 39.731169186168565 ], [ -121.813707032416758, 39.731813491394099 ], [ -121.814784510350364, 39.732863738883353 ], [ -121.816109127203276, 39.733842869859913 ], [ -121.816813943497252, 39.734401392093197 ], [ -121.81663420839341, 39.734472888488561 ], [ -121.816405261407127, 39.73456396164179 ], [ -121.816006491412708, 39.734637374136547 ], [ -121.815722907205938, 39.734733612416271 ], [ -121.815297180900799, 39.734922182028548 ], [ -121.815310948551968, 39.735003378492245 ], [ -121.815364098367965, 39.735316986533654 ], [ -121.815310984950258, 39.735337897200033 ], [ -121.815278513959754, 39.735213535941057 ], [ -121.815134247788905, 39.735116624853724 ], [ -121.815100312749351, 39.73518144676688 ], [ -121.815083446043332, 39.735204589410934 ], [ -121.815061016559795, 39.735231913284366 ], [ -121.81501107635934, 39.735268696113828 ], [ -121.814841871828321, 39.735369651395096 ], [ -121.814678658598837, 39.735437838251507 ], [ -121.814526284626297, 39.735518941524859 ], [ -121.814418371225017, 39.735568707032286 ], [ -121.814283191877394, 39.735607596023513 ], [ -121.8141299961801, 39.735630867411658 ], [ -121.814074016069512, 39.735639370604112 ], [ -121.813834904489781, 39.735664485565941 ], [ -121.813550529197911, 39.735682140060533 ], [ -121.813539254900547, 39.735680978335616 ], [ -121.813328988794538, 39.735659313318301 ], [ -121.813220422180919, 39.735630644423495 ], [ -121.813113671736204, 39.735612596449123 ], [ -121.813031476849247, 39.735603278063223 ], [ -121.812965555606539, 39.735628180763591 ], [ -121.812843493527225, 39.735679775947439 ], [ -121.812715819881831, 39.735761129606814 ], [ -121.812545066918759, 39.735793294950113 ], [ -121.812459161677907, 39.735848746384491 ], [ -121.812365896645076, 39.73587440048 ], [ -121.812378171460139, 39.735901025282679 ], [ -121.812309112610905, 39.73594560250676 ], [ -121.81221250299663, 39.735976405748161 ], [ -121.81209960734553, 39.735996444986597 ], [ -121.812046050414139, 39.735998150935885 ], [ -121.811955380615458, 39.736027752934241 ], [ -121.811678313625762, 39.736092201390143 ], [ -121.811631687299609, 39.736103046647479 ], [ -121.811376826239865, 39.736302298913849 ], [ -121.81062925676116, 39.736343175731527 ], [ -121.810597762164534, 39.736344897599864 ], [ -121.810485244212344, 39.736327504471049 ], [ -121.810347973531563, 39.736328217387374 ], [ -121.810249430601857, 39.736339623325385 ], [ -121.810105820939341, 39.736361765564908 ], [ -121.81005594219981, 39.736388807311442 ], [ -121.809811554053439, 39.736392660307985 ], [ -121.808804614672098, 39.736460696753909 ], [ -121.808416587868464, 39.736637462276121 ], [ -121.808030908623081, 39.736771172360669 ], [ -121.807780363752457, 39.73682366681507 ], [ -121.807495111226942, 39.73682073638723 ], [ -121.807335012769443, 39.736798440177516 ], [ -121.807033119550667, 39.736726501797406 ], [ -121.806984616119962, 39.736720406621373 ], [ -121.806978854856553, 39.736718920056411 ], [ -121.806910967223885, 39.736694573175214 ], [ -121.806864231269429, 39.736688887056147 ], [ -121.806693651804792, 39.736668133655733 ], [ -121.806134917046435, 39.736651628460315 ], [ -121.806020813188439, 39.736638851651485 ], [ -121.80584155580938, 39.736600789627715 ], [ -121.805756262637445, 39.736607756186061 ], [ -121.805671148642034, 39.736640583347963 ], [ -121.8055884884253, 39.736719966227312 ], [ -121.805457826236534, 39.736803378631045 ], [ -121.805423217236665, 39.73679262403197 ], [ -121.805374688258155, 39.736805024546264 ], [ -121.805319113271551, 39.736860201163445 ], [ -121.805245034206038, 39.736926045433982 ], [ -121.805062286404493, 39.737039846662505 ], [ -121.80500899492003, 39.737103941855722 ], [ -121.804976596604874, 39.737128847866074 ], [ -121.804934999572708, 39.73713947633351 ], [ -121.804888839641492, 39.73713048578567 ], [ -121.804835706625141, 39.737137529298167 ], [ -121.804812729178494, 39.737165587055465 ], [ -121.804657562126494, 39.737259746285112 ], [ -121.80456730179344, 39.737327850997509 ], [ -121.804541849100715, 39.737339405008669 ], [ -121.804516432607144, 39.737350943762827 ], [ -121.804533656662628, 39.737377682972223 ], [ -121.804410251604025, 39.737476245800003 ], [ -121.804315126803701, 39.737300187333801 ], [ -121.803293062475078, 39.736229317100047 ], [ -121.802542595602148, 39.73543787431683 ], [ -121.802093730807158, 39.734815491264712 ], [ -121.801586985915705, 39.733897656073751 ], [ -121.801342838549246, 39.733062866196832 ], [ -121.80119739513492, 39.732367068194606 ], [ -121.801186174642382, 39.731855190987233 ], [ -121.801346723572209, 39.730023947240497 ], [ -121.801492178336929, 39.728624810562593 ], [ -121.801509844586803, 39.727311367562535 ], [ -121.798143840027308, 39.727298040858187 ], [ -121.796304843186448, 39.727286416783855 ], [ -121.794230504780941, 39.727266781589734 ], [ -121.793110009169553, 39.727256160744425 ], [ -121.792944902157132, 39.727254594119799 ], [ -121.791663832019637, 39.726920092277865 ], [ -121.791085025825851, 39.726721330744013 ], [ -121.790085721461011, 39.726378159589359 ], [ -121.789426737927343, 39.726252908468176 ], [ -121.787409344288008, 39.726262460483589 ], [ -121.787401142450392, 39.728016781288524 ], [ -121.787395528200861, 39.72921723338343 ], [ -121.787449507717895, 39.731031574471814 ], [ -121.787481203198922, 39.732405330051996 ], [ -121.787549111391812, 39.733882578412235 ], [ -121.787571119720297, 39.734723699113857 ], [ -121.787575905929614, 39.735532185569227 ], [ -121.787591335820039, 39.738139263332272 ], [ -121.78767487766838, 39.738688717110875 ], [ -121.788069481542365, 39.738676496237723 ], [ -121.79167202326947, 39.739069204070375 ], [ -121.795461623656436, 39.739511086810559 ], [ -121.796637948949652, 39.739648218011943 ], [ -121.797223386893478, 39.739535926815407 ], [ -121.79812692892456, 39.73936260272238 ], [ -121.799484329973922, 39.739102224790138 ], [ -121.799895974747969, 39.740368009628952 ], [ -121.80001204255521, 39.740731080195481 ], [ -121.800193117667703, 39.741385388701396 ], [ -121.800102001470151, 39.741417998951192 ], [ -121.799994001341688, 39.741508999455519 ], [ -121.799069001253415, 39.742192999293216 ], [ -121.799052001769738, 39.742200998936234 ], [ -121.799043000930979, 39.742204998802109 ], [ -121.799033001400261, 39.742208998763687 ], [ -121.799024001723467, 39.742212999530736 ], [ -121.799014001023806, 39.742216999488676 ], [ -121.799005001347496, 39.742220999353584 ], [ -121.798995001179193, 39.742223998655497 ], [ -121.798985001640418, 39.74222799951368 ], [ -121.798971000975854, 39.742232998696991 ], [ -121.798965001296637, 39.742233999013919 ], [ -121.798955001122195, 39.742236999213134 ], [ -121.798945000946901, 39.742239999411467 ], [ -121.79893500077327, 39.742242998708285 ], [ -121.798925001762953, 39.742245998906895 ], [ -121.798782000843232, 39.742300998659154 ], [ -121.798837001095166, 39.742368999413443 ], [ -121.797802001447039, 39.742479999431701 ], [ -121.797279000865473, 39.742535999493313 ], [ -121.79733600099344, 39.74294599877603 ], [ -121.797354000898451, 39.743067998896571 ], [ -121.797493001739397, 39.744060999386988 ], [ -121.797500001770615, 39.744107998964445 ], [ -121.797518000845685, 39.744240998999651 ], [ -121.797719502199882, 39.745659164504943 ], [ -121.797791229166748, 39.746167678484674 ], [ -121.79782385147746, 39.746398959401766 ], [ -121.797880331772006, 39.746817442215473 ], [ -121.797902001400445, 39.74695299907728 ], [ -121.797901537000882, 39.746953007286834 ], [ -121.797882313452121, 39.746953338158754 ], [ -121.797872702262538, 39.746953907999128 ], [ -121.797769475338768, 39.746960022860229 ], [ -121.797779514552147, 39.747174851866376 ], [ -121.797785727483841, 39.747214169936221 ], [ -121.797824066400082, 39.747456761389039 ], [ -121.797842990741685, 39.747576503912406 ], [ -121.797862410170737, 39.747699379835495 ], [ -121.797942339078134, 39.748205143230962 ], [ -121.798056529981409, 39.748194119416731 ], [ -121.798056559731904, 39.748194323020975 ], [ -121.798251129952419, 39.749506702538874 ], [ -121.797501903438032, 39.749941595378957 ], [ -121.795915613221055, 39.750809797597121 ], [ -121.796329880961196, 39.751293043636259 ], [ -121.795959059278672, 39.751549116971617 ], [ -121.795804841001896, 39.751851081583133 ], [ -121.795847067442381, 39.752068289033218 ], [ -121.795942683566281, 39.752211013879581 ], [ -121.796143316609985, 39.752359767712306 ], [ -121.796855720004928, 39.752588860293073 ], [ -121.796522327591731, 39.753088377001674 ], [ -121.796464512738538, 39.753163864520651 ], [ -121.796463642259212, 39.7531634586122 ], [ -121.796424001011019, 39.753144999168939 ], [ -121.796180001117847, 39.753030999047787 ], [ -121.796089000669866, 39.753147998741781 ], [ -121.795962001503653, 39.753309999512283 ], [ -121.795683001051827, 39.753665998781941 ], [ -121.795782001041559, 39.753711998738282 ], [ -121.79592700118188, 39.753779999003065 ], [ -121.796159001748265, 39.753887999250964 ], [ -121.796261001295022, 39.753935998989924 ], [ -121.796482000774091, 39.754038998818338 ], [ -121.796539001524181, 39.754064998971018 ], [ -121.796704000927278, 39.754141999053964 ], [ -121.796879001670149, 39.754223998696077 ], [ -121.796863001215115, 39.754333999451347 ], [ -121.796816001403627, 39.754666999052958 ], [ -121.796815000971549, 39.754675998679375 ], [ -121.796539000639484, 39.755027998768369 ], [ -121.79617300150457, 39.754857999092565 ], [ -121.795749000774876, 39.75465999923027 ], [ -121.795371001577394, 39.75448399932872 ], [ -121.794953000862392, 39.754287999286902 ], [ -121.794490001522774, 39.754071998957592 ], [ -121.794292001122585, 39.754324998909638 ], [ -121.79359900061651, 39.754001998904599 ], [ -121.792844000971172, 39.753649999216897 ], [ -121.792843506881994, 39.753649772277868 ], [ -121.792667193021146, 39.753912251288952 ], [ -121.792490770092755, 39.754174863120177 ], [ -121.792314353984892, 39.75443748368216 ] ], [ [ -121.776637000776077, 39.763330998731533 ], [ -121.776660001361179, 39.763873998734887 ], [ -121.777189001344851, 39.763860999003448 ], [ -121.777222001045814, 39.764622999174662 ], [ -121.777233001302605, 39.764879999021439 ], [ -121.777265001117073, 39.765639999300681 ], [ -121.777279001723826, 39.765776999136094 ], [ -121.77729100123841, 39.766054999027006 ], [ -121.777303000879215, 39.766350998820442 ], [ -121.777304001625978, 39.766366999352506 ], [ -121.777496000909082, 39.767002998967598 ], [ -121.77756000165364, 39.766988999141773 ], [ -121.777522001684858, 39.766938999508795 ], [ -121.77767300110655, 39.766872998830962 ], [ -121.777787001514312, 39.766826998722273 ], [ -121.777901001769692, 39.766780999403089 ], [ -121.778000000620366, 39.766743999129254 ], [ -121.778017000966557, 39.766737999376204 ], [ -121.778133001526825, 39.766695998983131 ], [ -121.778250001324565, 39.766654999202323 ], [ -121.77836900091333, 39.766615998957803 ], [ -121.778488001054143, 39.76657899898639 ], [ -121.778608001619233, 39.766542998719899 ], [ -121.778728001585236, 39.766508998722429 ], [ -121.778850001369619, 39.766476999148004 ], [ -121.778972001393257, 39.7664459991935 ], [ -121.779095001049143, 39.766416998678402 ], [ -121.779219001508039, 39.76638999940301 ], [ -121.779343001062998, 39.766363998840653 ], [ -121.779467001235446, 39.766339999442259 ], [ -121.779593000920812, 39.76631699889834 ], [ -121.780390001162075, 39.766179998768116 ], [ -121.780531000957694, 39.766153998934534 ], [ -121.780758001658242, 39.766109998824852 ], [ -121.78079200166593, 39.76620699876068 ], [ -121.780942000895408, 39.766174998697565 ], [ -121.781089001342181, 39.766141999427269 ], [ -121.781235001476617, 39.766105998876732 ], [ -121.781379001460195, 39.766067999442932 ], [ -121.781523000903704, 39.766028999184968 ], [ -121.781666001157831, 39.765986999461106 ], [ -121.781927000940058, 39.765905999269705 ], [ -121.782068000675523, 39.7658589993232 ], [ -121.782207001377444, 39.765809998719853 ], [ -121.782345000891738, 39.765758999311061 ], [ -121.782481001756508, 39.76570699900391 ], [ -121.78261700161471, 39.765652999044754 ], [ -121.78283000141866, 39.765562998777938 ], [ -121.782962001433987, 39.765503999515907 ], [ -121.783093001392444, 39.765442998770361 ], [ -121.783222001089143, 39.76537999920658 ], [ -121.783351001311104, 39.765315998854405 ], [ -121.783511001114817, 39.765231999181267 ], [ -121.783585596882773, 39.765209046658285 ], [ -121.783666699011704, 39.765183839048511 ], [ -121.784150595474472, 39.764906469671892 ], [ -121.784460758641401, 39.764706474233542 ], [ -121.784463001612849, 39.76470499943467 ], [ -121.784441719147793, 39.764693539049745 ], [ -121.784437001490204, 39.764690999523999 ], [ -121.783629001743208, 39.764257999081281 ], [ -121.782314000716767, 39.763561998843301 ], [ -121.781487001573694, 39.763109999081813 ], [ -121.781451001101559, 39.763089999473578 ], [ -121.781435000791149, 39.762664998812802 ], [ -121.781422001329091, 39.762276998813633 ], [ -121.780851001494852, 39.762287999336706 ], [ -121.780831000948609, 39.762287999039884 ], [ -121.780681001467585, 39.762290999108892 ], [ -121.780193000963635, 39.762299999292239 ], [ -121.780173001581019, 39.762299998885808 ], [ -121.780152001251807, 39.762300999056784 ], [ -121.779528001520561, 39.76231199867938 ], [ -121.779508001322782, 39.762312998806728 ], [ -121.7791820006927, 39.762318998865574 ], [ -121.778863001014784, 39.762324999460965 ], [ -121.77884300162502, 39.762324998828682 ], [ -121.778205000929361, 39.762336999117736 ], [ -121.778182001099651, 39.76233699902631 ], [ -121.777124001365308, 39.762356999315088 ], [ -121.777150001619191, 39.762958999197878 ], [ -121.776637000776077, 39.763330998731533 ] ] ] } }
]
}
