{
"type": "FeatureCollection",
"name": "district-boundary",
"crs": { "type": "name", "properties": { "name": "urn:ogc:def:crs:OGC:1.3:CRS84" } },
"features": [
{ "type": "Feature", "properties": { "DISTRICT": "4", "NAME": "District #4" }, "geometry": { "type": "Polygon", "coordinates": [ [ [ -121.832716628405635, 39.729400639950761 ], [ -121.833524793546857, 39.730062772108731 ], [ -121.834298276861077, 39.730765172388956 ], [ -121.835095681531186, 39.731470839754472 ], [ -121.835833348324599, 39.73214497898271 ], [ -121.836781653415471, 39.731528311595767 ], [ -121.837206097299017, 39.731915469690989 ], [ -121.837784443040263, 39.731838690599041 ], [ -121.838000331814456, 39.731811110913412 ], [ -121.837998373598978, 39.733464145730871 ], [ -121.840288702179279, 39.73339391609727 ], [ -121.841730543584688, 39.735406338213103 ], [ -121.84230343630432, 39.736184300400339 ], [ -121.842857770657744, 39.736947093439326 ], [ -121.843428338006376, 39.737751060022276 ], [ -121.843980940676389, 39.738543980850757 ], [ -121.845510451699923, 39.737894032631388 ], [ -121.845620071997672, 39.73784744374727 ], [ -121.845728886740616, 39.737801055457155 ], [ -121.845827555141256, 39.737758433032198 ], [ -121.847333398850907, 39.73710788957154 ], [ -121.848831418258087, 39.736439460680259 ], [ -121.850391786457891, 39.735792367745098 ], [ -121.851804344058124, 39.735178935416741 ], [ -121.851970616889119, 39.735106728970642 ], [ -121.853117709374231, 39.734628513564907 ], [ -121.853451683560678, 39.734592227084114 ], [ -121.853760968842721, 39.734563465701157 ], [ -121.855176869090272, 39.733969855068196 ], [ -121.856142246961539, 39.733564161393261 ], [ -121.856600154979233, 39.733370097253385 ], [ -121.857206592651508, 39.733113097229491 ], [ -121.858054110045472, 39.732651152059752 ], [ -121.859449445372036, 39.73352156833203 ], [ -121.862160242260828, 39.73506310899343 ], [ -121.864197273880649, 39.736086372483435 ], [ -121.867686157856483, 39.737668705510217 ], [ -121.867998550957765, 39.737797818371476 ], [ -121.87054812196277, 39.738851507279051 ], [ -121.870743514888787, 39.738936438124085 ], [ -121.870586945635836, 39.739151132228827 ], [ -121.870057363806069, 39.739384077917578 ], [ -121.867947020752197, 39.740312224009962 ], [ -121.868345365795292, 39.740879782817608 ], [ -121.868457049359463, 39.741022017707962 ], [ -121.868907967932614, 39.741240285079868 ], [ -121.869162174832596, 39.741547636338169 ], [ -121.86880987821003, 39.741695223972677 ], [ -121.868516965546618, 39.74181795871165 ], [ -121.868255131290653, 39.741927637939504 ], [ -121.867099315573924, 39.742420180820751 ], [ -121.865788434116951, 39.742978721945668 ], [ -121.865466234682529, 39.743116011146185 ], [ -121.862625849576744, 39.744374445821983 ], [ -121.861205534385235, 39.744982914344099 ], [ -121.860576869919868, 39.745252200066915 ], [ -121.859601233122731, 39.745665427023198 ], [ -121.858806712676341, 39.74600192823695 ], [ -121.858416083632505, 39.746167362973424 ], [ -121.858007047398957, 39.746343590440134 ], [ -121.857678994122168, 39.746494007323733 ], [ -121.857416176222614, 39.746612027494344 ], [ -121.856870125072916, 39.746857239860411 ], [ -121.856519582694744, 39.747018758515928 ], [ -121.855776762196896, 39.747361036755407 ], [ -121.854961833976063, 39.747686467067496 ], [ -121.854619974102292, 39.747829008957559 ], [ -121.854201422306772, 39.748004582692182 ], [ -121.853517679706187, 39.748291387600105 ], [ -121.853385938164152, 39.748338254248196 ], [ -121.853350394606522, 39.748352513626273 ], [ -121.853903608739358, 39.749043216106905 ], [ -121.854264982906074, 39.749438599805544 ], [ -121.855382249213747, 39.750660981846096 ], [ -121.856546048876567, 39.751870256817547 ], [ -121.856919791854565, 39.752245134099446 ], [ -121.857270362812002, 39.752598077626409 ], [ -121.858120272167028, 39.753481761070915 ], [ -121.858609749340843, 39.754007472151059 ], [ -121.859733001252849, 39.755121738690754 ], [ -121.859886783736414, 39.755297404676796 ], [ -121.860417299416369, 39.755799632873781 ], [ -121.860793336286193, 39.756155631754631 ], [ -121.861349955587826, 39.756740332308482 ], [ -121.862808142868346, 39.758185034637961 ], [ -121.86348735678709, 39.758871225518227 ], [ -121.864227061911706, 39.759594657322175 ], [ -121.864671602755948, 39.760047110413012 ], [ -121.865685496399337, 39.761048341937816 ], [ -121.864422692386256, 39.761768726717037 ], [ -121.864338403681785, 39.761837918336994 ], [ -121.863610275687705, 39.762269367323796 ], [ -121.863170061066, 39.762549539280705 ], [ -121.862819809764133, 39.762736023858039 ], [ -121.862819784059511, 39.762736039139511 ], [ -121.861572350559456, 39.763478451196256 ], [ -121.861084618554088, 39.76377821923333 ], [ -121.860694365718473, 39.764029686794665 ], [ -121.860641874347522, 39.764063509741511 ], [ -121.860559598318773, 39.764114424564234 ], [ -121.860549001503657, 39.764104999100049 ], [ -121.858517000769481, 39.762477998727597 ], [ -121.855602001245416, 39.76017499878315 ], [ -121.854382001310597, 39.759384998705208 ], [ -121.852604001545672, 39.758386999467923 ], [ -121.852455000995278, 39.758303998638802 ], [ -121.851148001358439, 39.757599999390791 ], [ -121.851040001372922, 39.757538998885586 ], [ -121.84791400167849, 39.755753999035996 ], [ -121.845529001514265, 39.754404999033447 ], [ -121.845099398514563, 39.754162272870637 ], [ -121.844511000626298, 39.753822999311524 ], [ -121.844432000677486, 39.753777999006061 ], [ -121.841969001281086, 39.752442999253773 ], [ -121.839838892710347, 39.751288424923054 ], [ -121.838785965009478, 39.750672952817908 ], [ -121.835403095964935, 39.748217849571873 ], [ -121.831566099417543, 39.745339037441667 ], [ -121.828841154247286, 39.743348966918418 ], [ -121.823979156558011, 39.739814559801815 ], [ -121.822435857662228, 39.738686894086449 ], [ -121.822054658794258, 39.738355987527768 ], [ -121.820329461211557, 39.73704268611548 ], [ -121.819982950368527, 39.736781772465058 ], [ -121.820111826934337, 39.736695968841417 ], [ -121.820459277629567, 39.736450115245979 ], [ -121.822328170915426, 39.735184888724767 ], [ -121.824025174970416, 39.734057684822261 ], [ -121.8247976755449, 39.734736621994806 ], [ -121.826482082615499, 39.733641074123909 ], [ -121.828158770416096, 39.732512722781244 ], [ -121.829076188145095, 39.731883298876092 ], [ -121.830006223521579, 39.731244395426096 ], [ -121.83091689086541, 39.730634535232142 ], [ -121.831835074047746, 39.730017032715828 ], [ -121.83022637147613, 39.728630145669577 ], [ -121.831133130013328, 39.728006846627594 ], [ -121.831971372484773, 39.72871014559616 ], [ -121.832716628405635, 39.729400639950761 ] ] ] } }
]
}
